{
"type": "FeatureCollection",
"name": "gauges_grdc",
"crs": { "type": "name", "properties": { "name": "urn:ogc:def:crs:OGC:1.3:CRS84" } },
"features": [
{ "type": "Feature", "properties": { "grdc_no": 6123790, "wmo_reg": 6, "sub_reg": 23, "river": "SAUNADE", "station": "PONTAUMUR", "country": "FR", "uparea": 112.0, "altitude": 589.47, "d_start": "1967", "d_end": "2008", "d_yrs": "42", "d_miss": "0.1658814942605003", "m_start": null, "m_end": null, "m_yrs": null, "m_miss": null, "t_start": 1967, "t_end": 2008, "t_yrs": 42, "lta_discharge": "1.117", "r_volume_yr": "0.035225712", "r_height_yr": "314.5152857142857" }, "geometry": { "type": "Point", "coordinates": [ 2.67, 45.869167 ] } },
{ "type": "Feature", "properties": { "grdc_no": 9114518, "wmo_reg": 9, "sub_reg": 14, "river": "SOURCE DE CHEZ PIERRE", "station": "CEYSSAT", "country": "FR", "uparea": 10.3, "altitude": -99.0, "d_start": "1976", "d_end": "1992", "d_yrs": "17", "d_miss": "0", "m_start": 1976.0, "m_end": 1992.0, "m_yrs": 17.0, "m_miss": 0.299, "t_start": 1976, "t_end": 1992, "t_yrs": 17, "lta_discharge": "0.009", "r_volume_yr": "916", "r_height_yr": "100" }, "geometry": { "type": "Point", "coordinates": [ 2.686667, 45.919167 ] } },
{ "type": "Feature", "properties": { "grdc_no": 9114527, "wmo_reg": 9, "sub_reg": 14, "river": "SIOULE", "station": "FADES-BESSERVE", "country": "FR", "uparea": 1300.0, "altitude": -99.0, "d_start": "1919", "d_end": "1988", "d_yrs": "70", "d_miss": "0", "m_start": 1919.0, "m_end": 1988.0, "m_yrs": 70.0, "m_miss": 19.251, "t_start": 1919, "t_end": 1988, "t_yrs": 70, "lta_discharge": "0.607", "r_volume_yr": "467", "r_height_yr": "100" }, "geometry": { "type": "Point", "coordinates": [ 2.803333, 45.969167 ] } },
{ "type": "Feature", "properties": { "grdc_no": 9114543, "wmo_reg": 9, "sub_reg": 14, "river": "SIOULE", "station": "PONTGIBAUD", "country": "FR", "uparea": 353.0, "altitude": 661.45, "d_start": "1965", "d_end": "1991", "d_yrs": "27", "d_miss": "15.22", "m_start": 1965.0, "m_end": 1991.0, "m_yrs": 27.0, "m_miss": 6.791, "t_start": 1965, "t_end": 1991, "t_yrs": 27, "lta_discharge": "0.214", "r_volume_yr": "607", "r_height_yr": "85.2" }, "geometry": { "type": "Point", "coordinates": [ 2.845, 45.819167 ] } }
]
}
