{
"type": "FeatureCollection",
"name": "meta_basins_highres",
"crs": { "type": "name", "properties": { "name": "urn:ogc:def:crs:OGC:1.3:CRS84" } },
"features": [
{ "type": "Feature", "properties": { "value": 1.0 }, "geometry": { "type": "Polygon", "coordinates": [ [ [ 2.77, 46.095 ], [ 2.77, 46.094167 ], [ 2.770833, 46.094167 ], [ 2.770833, 46.093333 ], [ 2.771667, 46.093333 ], [ 2.771667, 46.091667 ], [ 2.7725, 46.091667 ], [ 2.7725, 46.090833 ], [ 2.775833, 46.090833 ], [ 2.775833, 46.09 ], [ 2.7775, 46.09 ], [ 2.7775, 46.090833 ], [ 2.779167, 46.090833 ], [ 2.779167, 46.09 ], [ 2.78, 46.09 ], [ 2.78, 46.089167 ], [ 2.780833, 46.089167 ], [ 2.780833, 46.088333 ], [ 2.781667, 46.088333 ], [ 2.781667, 46.0875 ], [ 2.783333, 46.0875 ], [ 2.783333, 46.085 ], [ 2.784167, 46.085 ], [ 2.784167, 46.084167 ], [ 2.785, 46.084167 ], [ 2.785, 46.083333 ], [ 2.785833, 46.083333 ], [ 2.785833, 46.0825 ], [ 2.786667, 46.0825 ], [ 2.786667, 46.080833 ], [ 2.7875, 46.080833 ], [ 2.7875, 46.08 ], [ 2.789167, 46.08 ], [ 2.789167, 46.079167 ], [ 2.79, 46.079167 ], [ 2.79, 46.078333 ], [ 2.793333, 46.078333 ], [ 2.793333, 46.079167 ], [ 2.795, 46.079167 ], [ 2.795, 46.08 ], [ 2.795833, 46.08 ], [ 2.795833, 46.080833 ], [ 2.796667, 46.080833 ], [ 2.796667, 46.083333 ], [ 2.7975, 46.083333 ], [ 2.7975, 46.084167 ], [ 2.798333, 46.084167 ], [ 2.798333, 46.085 ], [ 2.799167, 46.085 ], [ 2.799167, 46.086667 ], [ 2.800833, 46.086667 ], [ 2.800833, 46.0875 ], [ 2.805833, 46.0875 ], [ 2.805833, 46.086667 ], [ 2.806667, 46.086667 ], [ 2.806667, 46.085833 ], [ 2.8125, 46.085833 ], [ 2.8125, 46.085 ], [ 2.816667, 46.085 ], [ 2.816667, 46.084167 ], [ 2.815833, 46.084167 ], [ 2.815833, 46.083333 ], [ 2.815, 46.083333 ], [ 2.815, 46.0825 ], [ 2.814167, 46.0825 ], [ 2.814167, 46.081667 ], [ 2.813333, 46.081667 ], [ 2.813333, 46.08 ], [ 2.8125, 46.08 ], [ 2.8125, 46.078333 ], [ 2.811667, 46.078333 ], [ 2.811667, 46.076667 ], [ 2.810833, 46.076667 ], [ 2.810833, 46.075833 ], [ 2.81, 46.075833 ], [ 2.81, 46.0725 ], [ 2.809167, 46.0725 ], [ 2.809167, 46.071667 ], [ 2.81, 46.071667 ], [ 2.81, 46.070833 ], [ 2.810833, 46.070833 ], [ 2.810833, 46.07 ], [ 2.811667, 46.07 ], [ 2.811667, 46.065833 ], [ 2.810833, 46.065833 ], [ 2.810833, 46.065 ], [ 2.81, 46.065 ], [ 2.81, 46.063333 ], [ 2.810833, 46.063333 ], [ 2.810833, 46.061667 ], [ 2.811667, 46.061667 ], [ 2.811667, 46.06 ], [ 2.8125, 46.06 ], [ 2.8125, 46.058333 ], [ 2.814167, 46.058333 ], [ 2.814167, 46.0575 ], [ 2.816667, 46.0575 ], [ 2.816667, 46.056667 ], [ 2.818333, 46.056667 ], [ 2.818333, 46.054167 ], [ 2.819167, 46.054167 ], [ 2.819167, 46.050833 ], [ 2.82, 46.050833 ], [ 2.82, 46.049167 ], [ 2.8225, 46.049167 ], [ 2.8225, 46.048333 ], [ 2.823333, 46.048333 ], [ 2.823333, 46.0475 ], [ 2.825, 46.0475 ], [ 2.825, 46.046667 ], [ 2.825833, 46.046667 ], [ 2.825833, 46.045 ], [ 2.824167, 46.045 ], [ 2.824167, 46.044167 ], [ 2.823333, 46.044167 ], [ 2.823333, 46.041667 ], [ 2.8225, 46.041667 ], [ 2.8225, 46.039167 ], [ 2.821667, 46.039167 ], [ 2.821667, 46.0375 ], [ 2.820833, 46.0375 ], [ 2.820833, 46.036667 ], [ 2.82, 46.036667 ], [ 2.82, 46.035833 ], [ 2.819167, 46.035833 ], [ 2.819167, 46.033333 ], [ 2.818333, 46.033333 ], [ 2.818333, 46.031667 ], [ 2.8175, 46.031667 ], [ 2.8175, 46.030833 ], [ 2.811667, 46.030833 ], [ 2.811667, 46.031667 ], [ 2.806667, 46.031667 ], [ 2.806667, 46.03 ], [ 2.805833, 46.03 ], [ 2.805833, 46.028333 ], [ 2.805, 46.028333 ], [ 2.805, 46.025 ], [ 2.806667, 46.025 ], [ 2.806667, 46.024167 ], [ 2.8075, 46.024167 ], [ 2.8075, 46.023333 ], [ 2.808333, 46.023333 ], [ 2.808333, 46.021667 ], [ 2.8075, 46.021667 ], [ 2.8075, 46.020833 ], [ 2.806667, 46.020833 ], [ 2.806667, 46.019167 ], [ 2.805833, 46.019167 ], [ 2.805833, 46.018333 ], [ 2.805, 46.018333 ], [ 2.805, 46.0175 ], [ 2.804167, 46.0175 ], [ 2.804167, 46.016667 ], [ 2.803333, 46.016667 ], [ 2.803333, 46.015833 ], [ 2.8025, 46.015833 ], [ 2.8025, 46.015 ], [ 2.801667, 46.015 ], [ 2.801667, 46.014167 ], [ 2.800833, 46.014167 ], [ 2.800833, 46.013333 ], [ 2.8, 46.013333 ], [ 2.8, 46.011667 ], [ 2.800833, 46.011667 ], [ 2.800833, 46.010833 ], [ 2.801667, 46.010833 ], [ 2.801667, 46.009167 ], [ 2.800833, 46.009167 ], [ 2.800833, 46.008333 ], [ 2.8, 46.008333 ], [ 2.8, 46.0075 ], [ 2.799167, 46.0075 ], [ 2.799167, 46.006667 ], [ 2.798333, 46.006667 ], [ 2.798333, 46.005833 ], [ 2.7975, 46.005833 ], [ 2.7975, 46.005 ], [ 2.795833, 46.005 ], [ 2.795833, 46.004167 ], [ 2.795, 46.004167 ], [ 2.795, 46.003333 ], [ 2.793333, 46.003333 ], [ 2.793333, 46.0025 ], [ 2.789167, 46.0025 ], [ 2.789167, 45.998333 ], [ 2.788333, 45.998333 ], [ 2.788333, 45.9975 ], [ 2.7875, 45.9975 ], [ 2.7875, 45.996667 ], [ 2.786667, 45.996667 ], [ 2.786667, 45.994167 ], [ 2.785833, 45.994167 ], [ 2.785833, 45.993333 ], [ 2.785, 45.993333 ], [ 2.785, 45.991667 ], [ 2.785833, 45.991667 ], [ 2.785833, 45.990833 ], [ 2.786667, 45.990833 ], [ 2.786667, 45.99 ], [ 2.785833, 45.99 ], [ 2.785833, 45.988333 ], [ 2.786667, 45.988333 ], [ 2.786667, 45.9875 ], [ 2.789167, 45.9875 ], [ 2.789167, 45.985833 ], [ 2.79, 45.985833 ], [ 2.79, 45.983333 ], [ 2.790833, 45.983333 ], [ 2.790833, 45.9825 ], [ 2.791667, 45.9825 ], [ 2.791667, 45.981667 ], [ 2.7925, 45.981667 ], [ 2.7925, 45.980833 ], [ 2.795, 45.980833 ], [ 2.795, 45.98 ], [ 2.799167, 45.98 ], [ 2.799167, 45.979167 ], [ 2.8, 45.979167 ], [ 2.8, 45.978333 ], [ 2.803333, 45.978333 ], [ 2.803333, 45.9775 ], [ 2.805, 45.9775 ], [ 2.805, 45.976667 ], [ 2.809167, 45.976667 ], [ 2.809167, 45.975833 ], [ 2.81, 45.975833 ], [ 2.81, 45.975 ], [ 2.810833, 45.975 ], [ 2.810833, 45.973333 ], [ 2.81, 45.973333 ], [ 2.81, 45.9725 ], [ 2.810833, 45.9725 ], [ 2.810833, 45.971667 ], [ 2.8125, 45.971667 ], [ 2.8125, 45.970833 ], [ 2.813333, 45.970833 ], [ 2.813333, 45.97 ], [ 2.814167, 45.97 ], [ 2.814167, 45.969167 ], [ 2.820833, 45.969167 ], [ 2.820833, 45.968333 ], [ 2.825833, 45.968333 ], [ 2.825833, 45.969167 ], [ 2.83, 45.969167 ], [ 2.83, 45.968333 ], [ 2.830833, 45.968333 ], [ 2.830833, 45.9675 ], [ 2.831667, 45.9675 ], [ 2.831667, 45.9625 ], [ 2.8325, 45.9625 ], [ 2.8325, 45.961667 ], [ 2.833333, 45.961667 ], [ 2.833333, 45.960833 ], [ 2.835, 45.960833 ], [ 2.835, 45.959167 ], [ 2.836667, 45.959167 ], [ 2.836667, 45.958333 ], [ 2.8375, 45.958333 ], [ 2.8375, 45.9575 ], [ 2.84, 45.9575 ], [ 2.84, 45.958333 ], [ 2.845, 45.958333 ], [ 2.845, 45.956667 ], [ 2.845833, 45.956667 ], [ 2.845833, 45.955833 ], [ 2.846667, 45.955833 ], [ 2.846667, 45.956667 ], [ 2.848333, 45.956667 ], [ 2.848333, 45.955833 ], [ 2.849167, 45.955833 ], [ 2.849167, 45.955 ], [ 2.85, 45.955 ], [ 2.85, 45.954167 ], [ 2.850833, 45.954167 ], [ 2.850833, 45.950833 ], [ 2.851667, 45.950833 ], [ 2.851667, 45.95 ], [ 2.8525, 45.95 ], [ 2.8525, 45.949167 ], [ 2.854167, 45.949167 ], [ 2.854167, 45.948333 ], [ 2.855, 45.948333 ], [ 2.855, 45.9475 ], [ 2.856667, 45.9475 ], [ 2.856667, 45.946667 ], [ 2.858333, 45.946667 ], [ 2.858333, 45.945833 ], [ 2.863333, 45.945833 ], [ 2.863333, 45.945 ], [ 2.865, 45.945 ], [ 2.865, 45.943333 ], [ 2.865833, 45.943333 ], [ 2.865833, 45.9425 ], [ 2.866667, 45.9425 ], [ 2.866667, 45.941667 ], [ 2.8675, 45.941667 ], [ 2.8675, 45.940833 ], [ 2.868333, 45.940833 ], [ 2.868333, 45.939167 ], [ 2.866667, 45.939167 ], [ 2.866667, 45.938333 ], [ 2.865833, 45.938333 ], [ 2.865833, 45.9375 ], [ 2.865, 45.9375 ], [ 2.865, 45.936667 ], [ 2.863333, 45.936667 ], [ 2.863333, 45.934167 ], [ 2.8625, 45.934167 ], [ 2.8625, 45.9325 ], [ 2.863333, 45.9325 ], [ 2.863333, 45.931667 ], [ 2.864167, 45.931667 ], [ 2.864167, 45.93 ], [ 2.865833, 45.93 ], [ 2.865833, 45.929167 ], [ 2.866667, 45.929167 ], [ 2.866667, 45.9275 ], [ 2.865833, 45.9275 ], [ 2.865833, 45.925833 ], [ 2.869167, 45.925833 ], [ 2.869167, 45.925 ], [ 2.87, 45.925 ], [ 2.87, 45.924167 ], [ 2.871667, 45.924167 ], [ 2.871667, 45.923333 ], [ 2.8725, 45.923333 ], [ 2.8725, 45.921667 ], [ 2.874167, 45.921667 ], [ 2.874167, 45.920833 ], [ 2.875833, 45.920833 ], [ 2.875833, 45.921667 ], [ 2.879167, 45.921667 ], [ 2.879167, 45.9225 ], [ 2.880833, 45.9225 ], [ 2.880833, 45.923333 ], [ 2.8825, 45.923333 ], [ 2.8825, 45.924167 ], [ 2.885, 45.924167 ], [ 2.885, 45.925 ], [ 2.891667, 45.925 ], [ 2.891667, 45.924167 ], [ 2.894167, 45.924167 ], [ 2.894167, 45.925 ], [ 2.896667, 45.925 ], [ 2.896667, 45.924167 ], [ 2.898333, 45.924167 ], [ 2.898333, 45.923333 ], [ 2.9025, 45.923333 ], [ 2.9025, 45.924167 ], [ 2.903333, 45.924167 ], [ 2.903333, 45.923333 ], [ 2.904167, 45.923333 ], [ 2.904167, 45.924167 ], [ 2.905, 45.924167 ], [ 2.905, 45.923333 ], [ 2.9075, 45.923333 ], [ 2.9075, 45.9225 ], [ 2.910833, 45.9225 ], [ 2.910833, 45.921667 ], [ 2.9125, 45.921667 ], [ 2.9125, 45.9225 ], [ 2.9175, 45.9225 ], [ 2.9175, 45.923333 ], [ 2.918333, 45.923333 ], [ 2.918333, 45.9225 ], [ 2.92, 45.9225 ], [ 2.92, 45.921667 ], [ 2.9225, 45.921667 ], [ 2.9225, 45.920833 ], [ 2.924167, 45.920833 ], [ 2.924167, 45.92 ], [ 2.928333, 45.92 ], [ 2.928333, 45.9175 ], [ 2.929167, 45.9175 ], [ 2.929167, 45.916667 ], [ 2.928333, 45.916667 ], [ 2.928333, 45.915 ], [ 2.929167, 45.915 ], [ 2.929167, 45.913333 ], [ 2.928333, 45.913333 ], [ 2.928333, 45.9125 ], [ 2.929167, 45.9125 ], [ 2.929167, 45.911667 ], [ 2.93, 45.911667 ], [ 2.93, 45.910833 ], [ 2.930833, 45.910833 ], [ 2.930833, 45.908333 ], [ 2.93, 45.908333 ], [ 2.93, 45.903333 ], [ 2.935, 45.903333 ], [ 2.935, 45.9025 ], [ 2.936667, 45.9025 ], [ 2.936667, 45.901667 ], [ 2.938333, 45.901667 ], [ 2.938333, 45.899167 ], [ 2.939167, 45.899167 ], [ 2.939167, 45.898333 ], [ 2.94, 45.898333 ], [ 2.94, 45.896667 ], [ 2.939167, 45.896667 ], [ 2.939167, 45.895 ], [ 2.938333, 45.895 ], [ 2.938333, 45.894167 ], [ 2.936667, 45.894167 ], [ 2.936667, 45.893333 ], [ 2.935, 45.893333 ], [ 2.935, 45.890833 ], [ 2.934167, 45.890833 ], [ 2.934167, 45.89 ], [ 2.933333, 45.89 ], [ 2.933333, 45.888333 ], [ 2.934167, 45.888333 ], [ 2.934167, 45.885 ], [ 2.935, 45.885 ], [ 2.935, 45.884167 ], [ 2.934167, 45.884167 ], [ 2.934167, 45.883333 ], [ 2.928333, 45.883333 ], [ 2.928333, 45.8825 ], [ 2.926667, 45.8825 ], [ 2.926667, 45.881667 ], [ 2.925833, 45.881667 ], [ 2.925833, 45.880833 ], [ 2.925, 45.880833 ], [ 2.925, 45.88 ], [ 2.924167, 45.88 ], [ 2.924167, 45.878333 ], [ 2.923333, 45.878333 ], [ 2.923333, 45.8775 ], [ 2.924167, 45.8775 ], [ 2.924167, 45.876667 ], [ 2.923333, 45.876667 ], [ 2.923333, 45.875 ], [ 2.924167, 45.875 ], [ 2.924167, 45.871667 ], [ 2.925, 45.871667 ], [ 2.925, 45.870833 ], [ 2.924167, 45.870833 ], [ 2.924167, 45.866667 ], [ 2.925, 45.866667 ], [ 2.925, 45.865833 ], [ 2.925833, 45.865833 ], [ 2.925833, 45.864167 ], [ 2.925, 45.864167 ], [ 2.925, 45.863333 ], [ 2.9225, 45.863333 ], [ 2.9225, 45.8625 ], [ 2.921667, 45.8625 ], [ 2.921667, 45.860833 ], [ 2.920833, 45.860833 ], [ 2.920833, 45.859167 ], [ 2.921667, 45.859167 ], [ 2.921667, 45.858333 ], [ 2.9225, 45.858333 ], [ 2.9225, 45.8575 ], [ 2.923333, 45.8575 ], [ 2.923333, 45.856667 ], [ 2.929167, 45.856667 ], [ 2.929167, 45.855833 ], [ 2.93, 45.855833 ], [ 2.93, 45.855 ], [ 2.929167, 45.855 ], [ 2.929167, 45.853333 ], [ 2.93, 45.853333 ], [ 2.93, 45.8525 ], [ 2.930833, 45.8525 ], [ 2.930833, 45.851667 ], [ 2.9325, 45.851667 ], [ 2.9325, 45.850833 ], [ 2.933333, 45.850833 ], [ 2.933333, 45.85 ], [ 2.935, 45.85 ], [ 2.935, 45.850833 ], [ 2.936667, 45.850833 ], [ 2.936667, 45.849167 ], [ 2.9375, 45.849167 ], [ 2.9375, 45.848333 ], [ 2.938333, 45.848333 ], [ 2.938333, 45.8475 ], [ 2.939167, 45.8475 ], [ 2.939167, 45.846667 ], [ 2.940833, 45.846667 ], [ 2.940833, 45.8475 ], [ 2.941667, 45.8475 ], [ 2.941667, 45.848333 ], [ 2.9425, 45.848333 ], [ 2.9425, 45.849167 ], [ 2.943333, 45.849167 ], [ 2.943333, 45.85 ], [ 2.948333, 45.85 ], [ 2.948333, 45.850833 ], [ 2.95, 45.850833 ], [ 2.95, 45.851667 ], [ 2.950833, 45.851667 ], [ 2.950833, 45.8525 ], [ 2.951667, 45.8525 ], [ 2.951667, 45.853333 ], [ 2.955833, 45.853333 ], [ 2.955833, 45.8525 ], [ 2.964167, 45.8525 ], [ 2.964167, 45.850833 ], [ 2.965, 45.850833 ], [ 2.965, 45.85 ], [ 2.965833, 45.85 ], [ 2.965833, 45.8475 ], [ 2.966667, 45.8475 ], [ 2.966667, 45.845 ], [ 2.965833, 45.845 ], [ 2.965833, 45.844167 ], [ 2.965, 45.844167 ], [ 2.965, 45.843333 ], [ 2.964167, 45.843333 ], [ 2.964167, 45.8425 ], [ 2.963333, 45.8425 ], [ 2.963333, 45.840833 ], [ 2.9625, 45.840833 ], [ 2.9625, 45.839167 ], [ 2.961667, 45.839167 ], [ 2.961667, 45.838333 ], [ 2.960833, 45.838333 ], [ 2.960833, 45.8375 ], [ 2.96, 45.8375 ], [ 2.96, 45.836667 ], [ 2.959167, 45.836667 ], [ 2.959167, 45.835833 ], [ 2.956667, 45.835833 ], [ 2.956667, 45.835 ], [ 2.955833, 45.835 ], [ 2.955833, 45.828333 ], [ 2.955, 45.828333 ], [ 2.955, 45.8275 ], [ 2.954167, 45.8275 ], [ 2.954167, 45.825833 ], [ 2.953333, 45.825833 ], [ 2.953333, 45.825 ], [ 2.955833, 45.825 ], [ 2.955833, 45.825833 ], [ 2.961667, 45.825833 ], [ 2.961667, 45.825 ], [ 2.964167, 45.825 ], [ 2.964167, 45.824167 ], [ 2.965, 45.824167 ], [ 2.965, 45.825 ], [ 2.965833, 45.825 ], [ 2.965833, 45.824167 ], [ 2.968333, 45.824167 ], [ 2.968333, 45.825 ], [ 2.969167, 45.825 ], [ 2.969167, 45.823333 ], [ 2.968333, 45.823333 ], [ 2.968333, 45.8225 ], [ 2.9675, 45.8225 ], [ 2.9675, 45.821667 ], [ 2.968333, 45.821667 ], [ 2.968333, 45.819167 ], [ 2.9675, 45.819167 ], [ 2.9675, 45.8175 ], [ 2.968333, 45.8175 ], [ 2.968333, 45.816667 ], [ 2.969167, 45.816667 ], [ 2.969167, 45.815833 ], [ 2.970833, 45.815833 ], [ 2.970833, 45.814167 ], [ 2.97, 45.814167 ], [ 2.97, 45.810833 ], [ 2.969167, 45.810833 ], [ 2.969167, 45.81 ], [ 2.9675, 45.81 ], [ 2.9675, 45.809167 ], [ 2.966667, 45.809167 ], [ 2.966667, 45.808333 ], [ 2.965833, 45.808333 ], [ 2.965833, 45.8075 ], [ 2.965, 45.8075 ], [ 2.965, 45.806667 ], [ 2.964167, 45.806667 ], [ 2.964167, 45.805833 ], [ 2.963333, 45.805833 ], [ 2.963333, 45.805 ], [ 2.9625, 45.805 ], [ 2.9625, 45.804167 ], [ 2.963333, 45.804167 ], [ 2.963333, 45.803333 ], [ 2.964167, 45.803333 ], [ 2.964167, 45.8025 ], [ 2.965, 45.8025 ], [ 2.965, 45.8 ], [ 2.965833, 45.8 ], [ 2.965833, 45.799167 ], [ 2.966667, 45.799167 ], [ 2.966667, 45.798333 ], [ 2.9675, 45.798333 ], [ 2.9675, 45.7975 ], [ 2.968333, 45.7975 ], [ 2.968333, 45.796667 ], [ 2.97, 45.796667 ], [ 2.97, 45.795 ], [ 2.969167, 45.795 ], [ 2.969167, 45.7925 ], [ 2.968333, 45.7925 ], [ 2.968333, 45.791667 ], [ 2.966667, 45.791667 ], [ 2.966667, 45.790833 ], [ 2.963333, 45.790833 ], [ 2.963333, 45.79 ], [ 2.964167, 45.79 ], [ 2.964167, 45.789167 ], [ 2.965, 45.789167 ], [ 2.965, 45.788333 ], [ 2.965833, 45.788333 ], [ 2.965833, 45.785833 ], [ 2.966667, 45.785833 ], [ 2.966667, 45.785 ], [ 2.965833, 45.785 ], [ 2.965833, 45.7825 ], [ 2.965, 45.7825 ], [ 2.965, 45.78 ], [ 2.964167, 45.78 ], [ 2.964167, 45.779167 ], [ 2.963333, 45.779167 ], [ 2.963333, 45.778333 ], [ 2.964167, 45.778333 ], [ 2.964167, 45.7775 ], [ 2.965, 45.7775 ], [ 2.965, 45.774167 ], [ 2.964167, 45.774167 ], [ 2.964167, 45.7725 ], [ 2.961667, 45.7725 ], [ 2.961667, 45.770833 ], [ 2.960833, 45.770833 ], [ 2.960833, 45.77 ], [ 2.96, 45.77 ], [ 2.96, 45.769167 ], [ 2.959167, 45.769167 ], [ 2.959167, 45.768333 ], [ 2.958333, 45.768333 ], [ 2.958333, 45.7675 ], [ 2.9575, 45.7675 ], [ 2.9575, 45.765833 ], [ 2.956667, 45.765833 ], [ 2.956667, 45.765 ], [ 2.955833, 45.765 ], [ 2.955833, 45.7625 ], [ 2.955, 45.7625 ], [ 2.955, 45.761667 ], [ 2.955833, 45.761667 ], [ 2.955833, 45.759167 ], [ 2.955, 45.759167 ], [ 2.955, 45.758333 ], [ 2.954167, 45.758333 ], [ 2.954167, 45.7575 ], [ 2.951667, 45.7575 ], [ 2.951667, 45.756667 ], [ 2.950833, 45.756667 ], [ 2.950833, 45.755833 ], [ 2.95, 45.755833 ], [ 2.95, 45.755 ], [ 2.948333, 45.755 ], [ 2.948333, 45.753333 ], [ 2.949167, 45.753333 ], [ 2.949167, 45.751667 ], [ 2.95, 45.751667 ], [ 2.95, 45.750833 ], [ 2.949167, 45.750833 ], [ 2.949167, 45.75 ], [ 2.948333, 45.75 ], [ 2.948333, 45.748333 ], [ 2.949167, 45.748333 ], [ 2.949167, 45.7475 ], [ 2.95, 45.7475 ], [ 2.95, 45.745 ], [ 2.949167, 45.745 ], [ 2.949167, 45.740833 ], [ 2.948333, 45.740833 ], [ 2.948333, 45.74 ], [ 2.949167, 45.74 ], [ 2.949167, 45.739167 ], [ 2.95, 45.739167 ], [ 2.95, 45.738333 ], [ 2.950833, 45.738333 ], [ 2.950833, 45.7375 ], [ 2.951667, 45.7375 ], [ 2.951667, 45.736667 ], [ 2.9525, 45.736667 ], [ 2.9525, 45.734167 ], [ 2.951667, 45.734167 ], [ 2.951667, 45.733333 ], [ 2.95, 45.733333 ], [ 2.95, 45.725 ], [ 2.950833, 45.725 ], [ 2.950833, 45.724167 ], [ 2.951667, 45.724167 ], [ 2.951667, 45.723333 ], [ 2.9525, 45.723333 ], [ 2.9525, 45.7225 ], [ 2.953333, 45.7225 ], [ 2.953333, 45.721667 ], [ 2.955, 45.721667 ], [ 2.955, 45.720833 ], [ 2.955833, 45.720833 ], [ 2.955833, 45.719167 ], [ 2.956667, 45.719167 ], [ 2.956667, 45.718333 ], [ 2.9575, 45.718333 ], [ 2.9575, 45.7175 ], [ 2.953333, 45.7175 ], [ 2.953333, 45.716667 ], [ 2.951667, 45.716667 ], [ 2.951667, 45.7175 ], [ 2.950833, 45.7175 ], [ 2.950833, 45.718333 ], [ 2.949167, 45.718333 ], [ 2.949167, 45.7175 ], [ 2.948333, 45.7175 ], [ 2.948333, 45.716667 ], [ 2.9475, 45.716667 ], [ 2.9475, 45.715833 ], [ 2.946667, 45.715833 ], [ 2.946667, 45.715 ], [ 2.945833, 45.715 ], [ 2.945833, 45.7125 ], [ 2.945, 45.7125 ], [ 2.945, 45.710833 ], [ 2.944167, 45.710833 ], [ 2.944167, 45.709167 ], [ 2.943333, 45.709167 ], [ 2.943333, 45.706667 ], [ 2.944167, 45.706667 ], [ 2.944167, 45.705833 ], [ 2.935833, 45.705833 ], [ 2.935833, 45.703333 ], [ 2.934167, 45.703333 ], [ 2.934167, 45.7025 ], [ 2.933333, 45.7025 ], [ 2.933333, 45.699167 ], [ 2.9325, 45.699167 ], [ 2.9325, 45.696667 ], [ 2.933333, 45.696667 ], [ 2.933333, 45.695833 ], [ 2.9325, 45.695833 ], [ 2.9325, 45.695 ], [ 2.931667, 45.695 ], [ 2.931667, 45.694167 ], [ 2.930833, 45.694167 ], [ 2.930833, 45.693333 ], [ 2.93, 45.693333 ], [ 2.93, 45.6925 ], [ 2.929167, 45.6925 ], [ 2.929167, 45.691667 ], [ 2.9275, 45.691667 ], [ 2.9275, 45.690833 ], [ 2.926667, 45.690833 ], [ 2.926667, 45.689167 ], [ 2.925833, 45.689167 ], [ 2.925833, 45.686667 ], [ 2.925, 45.686667 ], [ 2.925, 45.685833 ], [ 2.924167, 45.685833 ], [ 2.924167, 45.684167 ], [ 2.923333, 45.684167 ], [ 2.923333, 45.683333 ], [ 2.921667, 45.683333 ], [ 2.921667, 45.6825 ], [ 2.920833, 45.6825 ], [ 2.920833, 45.681667 ], [ 2.92, 45.681667 ], [ 2.92, 45.680833 ], [ 2.919167, 45.680833 ], [ 2.919167, 45.679167 ], [ 2.918333, 45.679167 ], [ 2.918333, 45.678333 ], [ 2.919167, 45.678333 ], [ 2.919167, 45.676667 ], [ 2.918333, 45.676667 ], [ 2.918333, 45.675833 ], [ 2.9175, 45.675833 ], [ 2.9175, 45.675 ], [ 2.916667, 45.675 ], [ 2.916667, 45.674167 ], [ 2.915833, 45.674167 ], [ 2.915833, 45.673333 ], [ 2.915, 45.673333 ], [ 2.915, 45.6725 ], [ 2.914167, 45.6725 ], [ 2.914167, 45.671667 ], [ 2.913333, 45.671667 ], [ 2.913333, 45.67 ], [ 2.914167, 45.67 ], [ 2.914167, 45.668333 ], [ 2.913333, 45.668333 ], [ 2.913333, 45.6675 ], [ 2.914167, 45.6675 ], [ 2.914167, 45.666667 ], [ 2.915, 45.666667 ], [ 2.915, 45.664167 ], [ 2.914167, 45.664167 ], [ 2.914167, 45.663333 ], [ 2.913333, 45.663333 ], [ 2.913333, 45.6625 ], [ 2.911667, 45.6625 ], [ 2.911667, 45.661667 ], [ 2.91, 45.661667 ], [ 2.91, 45.660833 ], [ 2.909167, 45.660833 ], [ 2.909167, 45.66 ], [ 2.905833, 45.66 ], [ 2.905833, 45.659167 ], [ 2.904167, 45.659167 ], [ 2.904167, 45.655833 ], [ 2.903333, 45.655833 ], [ 2.903333, 45.655 ], [ 2.9025, 45.655 ], [ 2.9025, 45.654167 ], [ 2.901667, 45.654167 ], [ 2.901667, 45.653333 ], [ 2.900833, 45.653333 ], [ 2.900833, 45.6525 ], [ 2.9, 45.6525 ], [ 2.9, 45.651667 ], [ 2.899167, 45.651667 ], [ 2.899167, 45.650833 ], [ 2.898333, 45.650833 ], [ 2.898333, 45.65 ], [ 2.8975, 45.65 ], [ 2.8975, 45.649167 ], [ 2.896667, 45.649167 ], [ 2.896667, 45.650833 ], [ 2.895833, 45.650833 ], [ 2.895833, 45.651667 ], [ 2.8925, 45.651667 ], [ 2.8925, 45.6525 ], [ 2.890833, 45.6525 ], [ 2.890833, 45.651667 ], [ 2.891667, 45.651667 ], [ 2.891667, 45.650833 ], [ 2.890833, 45.650833 ], [ 2.890833, 45.646667 ], [ 2.89, 45.646667 ], [ 2.89, 45.645833 ], [ 2.889167, 45.645833 ], [ 2.889167, 45.643333 ], [ 2.89, 45.643333 ], [ 2.89, 45.64 ], [ 2.890833, 45.64 ], [ 2.890833, 45.639167 ], [ 2.89, 45.639167 ], [ 2.89, 45.6375 ], [ 2.889167, 45.6375 ], [ 2.889167, 45.635833 ], [ 2.888333, 45.635833 ], [ 2.888333, 45.635 ], [ 2.8825, 45.635 ], [ 2.8825, 45.635833 ], [ 2.881667, 45.635833 ], [ 2.881667, 45.635 ], [ 2.88, 45.635 ], [ 2.88, 45.634167 ], [ 2.879167, 45.634167 ], [ 2.879167, 45.633333 ], [ 2.878333, 45.633333 ], [ 2.878333, 45.6325 ], [ 2.8775, 45.6325 ], [ 2.8775, 45.631667 ], [ 2.876667, 45.631667 ], [ 2.876667, 45.630833 ], [ 2.875833, 45.630833 ], [ 2.875833, 45.63 ], [ 2.875, 45.63 ], [ 2.875, 45.629167 ], [ 2.874167, 45.629167 ], [ 2.874167, 45.626667 ], [ 2.875, 45.626667 ], [ 2.875, 45.625833 ], [ 2.875833, 45.625833 ], [ 2.875833, 45.625 ], [ 2.876667, 45.625 ], [ 2.876667, 45.624167 ], [ 2.875, 45.624167 ], [ 2.875, 45.623333 ], [ 2.8725, 45.623333 ], [ 2.8725, 45.6225 ], [ 2.871667, 45.6225 ], [ 2.871667, 45.621667 ], [ 2.870833, 45.621667 ], [ 2.870833, 45.620833 ], [ 2.87, 45.620833 ], [ 2.87, 45.62 ], [ 2.869167, 45.62 ], [ 2.869167, 45.619167 ], [ 2.868333, 45.619167 ], [ 2.868333, 45.618333 ], [ 2.8675, 45.618333 ], [ 2.8675, 45.6175 ], [ 2.866667, 45.6175 ], [ 2.866667, 45.616667 ], [ 2.865833, 45.616667 ], [ 2.865833, 45.615 ], [ 2.8575, 45.615 ], [ 2.8575, 45.614167 ], [ 2.855, 45.614167 ], [ 2.855, 45.615 ], [ 2.854167, 45.615 ], [ 2.854167, 45.615833 ], [ 2.853333, 45.615833 ], [ 2.853333, 45.616667 ], [ 2.8525, 45.616667 ], [ 2.8525, 45.6175 ], [ 2.851667, 45.6175 ], [ 2.851667, 45.618333 ], [ 2.850833, 45.618333 ], [ 2.850833, 45.619167 ], [ 2.85, 45.619167 ], [ 2.85, 45.62 ], [ 2.849167, 45.62 ], [ 2.849167, 45.620833 ], [ 2.848333, 45.620833 ], [ 2.848333, 45.621667 ], [ 2.839167, 45.621667 ], [ 2.839167, 45.6225 ], [ 2.8375, 45.6225 ], [ 2.8375, 45.623333 ], [ 2.836667, 45.623333 ], [ 2.836667, 45.624167 ], [ 2.835833, 45.624167 ], [ 2.835833, 45.625 ], [ 2.835, 45.625 ], [ 2.835, 45.624167 ], [ 2.834167, 45.624167 ], [ 2.834167, 45.623333 ], [ 2.825, 45.623333 ], [ 2.825, 45.6225 ], [ 2.823333, 45.6225 ], [ 2.823333, 45.621667 ], [ 2.82, 45.621667 ], [ 2.82, 45.620833 ], [ 2.815833, 45.620833 ], [ 2.815833, 45.62 ], [ 2.808333, 45.62 ], [ 2.808333, 45.619167 ], [ 2.804167, 45.619167 ], [ 2.804167, 45.618333 ], [ 2.8025, 45.618333 ], [ 2.8025, 45.619167 ], [ 2.801667, 45.619167 ], [ 2.801667, 45.618333 ], [ 2.7975, 45.618333 ], [ 2.7975, 45.619167 ], [ 2.795833, 45.619167 ], [ 2.795833, 45.62 ], [ 2.795, 45.62 ], [ 2.795, 45.620833 ], [ 2.79, 45.620833 ], [ 2.79, 45.621667 ], [ 2.788333, 45.621667 ], [ 2.788333, 45.620833 ], [ 2.7875, 45.620833 ], [ 2.7875, 45.62 ], [ 2.786667, 45.62 ], [ 2.786667, 45.619167 ], [ 2.785, 45.619167 ], [ 2.785, 45.618333 ], [ 2.784167, 45.618333 ], [ 2.784167, 45.6175 ], [ 2.783333, 45.6175 ], [ 2.783333, 45.616667 ], [ 2.7825, 45.616667 ], [ 2.7825, 45.615833 ], [ 2.781667, 45.615833 ], [ 2.781667, 45.615 ], [ 2.78, 45.615 ], [ 2.78, 45.614167 ], [ 2.778333, 45.614167 ], [ 2.778333, 45.613333 ], [ 2.774167, 45.613333 ], [ 2.774167, 45.6125 ], [ 2.769167, 45.6125 ], [ 2.769167, 45.613333 ], [ 2.768333, 45.613333 ], [ 2.768333, 45.6125 ], [ 2.765, 45.6125 ], [ 2.765, 45.611667 ], [ 2.763333, 45.611667 ], [ 2.763333, 45.610833 ], [ 2.7625, 45.610833 ], [ 2.7625, 45.61 ], [ 2.761667, 45.61 ], [ 2.761667, 45.610833 ], [ 2.760833, 45.610833 ], [ 2.760833, 45.611667 ], [ 2.76, 45.611667 ], [ 2.76, 45.6125 ], [ 2.759167, 45.6125 ], [ 2.759167, 45.613333 ], [ 2.758333, 45.613333 ], [ 2.758333, 45.614167 ], [ 2.7575, 45.614167 ], [ 2.7575, 45.615 ], [ 2.756667, 45.615 ], [ 2.756667, 45.615833 ], [ 2.755, 45.615833 ], [ 2.755, 45.615 ], [ 2.753333, 45.615 ], [ 2.753333, 45.615833 ], [ 2.7525, 45.615833 ], [ 2.7525, 45.615 ], [ 2.751667, 45.615 ], [ 2.751667, 45.615833 ], [ 2.735833, 45.615833 ], [ 2.735833, 45.616667 ], [ 2.734167, 45.616667 ], [ 2.734167, 45.6175 ], [ 2.731667, 45.6175 ], [ 2.731667, 45.618333 ], [ 2.728333, 45.618333 ], [ 2.728333, 45.619167 ], [ 2.726667, 45.619167 ], [ 2.726667, 45.620833 ], [ 2.725833, 45.620833 ], [ 2.725833, 45.621667 ], [ 2.725, 45.621667 ], [ 2.725, 45.6225 ], [ 2.723333, 45.6225 ], [ 2.723333, 45.624167 ], [ 2.7225, 45.624167 ], [ 2.7225, 45.625833 ], [ 2.721667, 45.625833 ], [ 2.721667, 45.626667 ], [ 2.72, 45.626667 ], [ 2.72, 45.628333 ], [ 2.720833, 45.628333 ], [ 2.720833, 45.631667 ], [ 2.721667, 45.631667 ], [ 2.721667, 45.633333 ], [ 2.720833, 45.633333 ], [ 2.720833, 45.634167 ], [ 2.72, 45.634167 ], [ 2.72, 45.635 ], [ 2.719167, 45.635 ], [ 2.719167, 45.636667 ], [ 2.718333, 45.636667 ], [ 2.718333, 45.6375 ], [ 2.7175, 45.6375 ], [ 2.7175, 45.638333 ], [ 2.715, 45.638333 ], [ 2.715, 45.639167 ], [ 2.714167, 45.639167 ], [ 2.714167, 45.64 ], [ 2.711667, 45.64 ], [ 2.711667, 45.640833 ], [ 2.710833, 45.640833 ], [ 2.710833, 45.641667 ], [ 2.71, 45.641667 ], [ 2.71, 45.6425 ], [ 2.709167, 45.6425 ], [ 2.709167, 45.643333 ], [ 2.708333, 45.643333 ], [ 2.708333, 45.645833 ], [ 2.7075, 45.645833 ], [ 2.7075, 45.646667 ], [ 2.706667, 45.646667 ], [ 2.706667, 45.6475 ], [ 2.705833, 45.6475 ], [ 2.705833, 45.648333 ], [ 2.705, 45.648333 ], [ 2.705, 45.649167 ], [ 2.704167, 45.649167 ], [ 2.704167, 45.65 ], [ 2.703333, 45.65 ], [ 2.703333, 45.650833 ], [ 2.7025, 45.650833 ], [ 2.7025, 45.651667 ], [ 2.701667, 45.651667 ], [ 2.701667, 45.6525 ], [ 2.700833, 45.6525 ], [ 2.700833, 45.656667 ], [ 2.698333, 45.656667 ], [ 2.698333, 45.6575 ], [ 2.6975, 45.6575 ], [ 2.6975, 45.66 ], [ 2.696667, 45.66 ], [ 2.696667, 45.660833 ], [ 2.695833, 45.660833 ], [ 2.695833, 45.6625 ], [ 2.69, 45.6625 ], [ 2.69, 45.664167 ], [ 2.690833, 45.664167 ], [ 2.690833, 45.666667 ], [ 2.6925, 45.666667 ], [ 2.6925, 45.6675 ], [ 2.693333, 45.6675 ], [ 2.693333, 45.668333 ], [ 2.694167, 45.668333 ], [ 2.694167, 45.669167 ], [ 2.695833, 45.669167 ], [ 2.695833, 45.67 ], [ 2.696667, 45.67 ], [ 2.696667, 45.674167 ], [ 2.6975, 45.674167 ], [ 2.6975, 45.675833 ], [ 2.698333, 45.675833 ], [ 2.698333, 45.678333 ], [ 2.699167, 45.678333 ], [ 2.699167, 45.68 ], [ 2.7, 45.68 ], [ 2.7, 45.681667 ], [ 2.700833, 45.681667 ], [ 2.700833, 45.683333 ], [ 2.701667, 45.683333 ], [ 2.701667, 45.685833 ], [ 2.700833, 45.685833 ], [ 2.700833, 45.686667 ], [ 2.7, 45.686667 ], [ 2.7, 45.6875 ], [ 2.699167, 45.6875 ], [ 2.699167, 45.69 ], [ 2.698333, 45.69 ], [ 2.698333, 45.691667 ], [ 2.699167, 45.691667 ], [ 2.699167, 45.693333 ], [ 2.698333, 45.693333 ], [ 2.698333, 45.694167 ], [ 2.699167, 45.694167 ], [ 2.699167, 45.695833 ], [ 2.698333, 45.695833 ], [ 2.698333, 45.6975 ], [ 2.696667, 45.6975 ], [ 2.696667, 45.698333 ], [ 2.695, 45.698333 ], [ 2.695, 45.699167 ], [ 2.694167, 45.699167 ], [ 2.694167, 45.700833 ], [ 2.693333, 45.700833 ], [ 2.693333, 45.701667 ], [ 2.694167, 45.701667 ], [ 2.694167, 45.704167 ], [ 2.695, 45.704167 ], [ 2.695, 45.705 ], [ 2.695833, 45.705 ], [ 2.695833, 45.706667 ], [ 2.696667, 45.706667 ], [ 2.696667, 45.710833 ], [ 2.6975, 45.710833 ], [ 2.6975, 45.713333 ], [ 2.696667, 45.713333 ], [ 2.696667, 45.714167 ], [ 2.695833, 45.714167 ], [ 2.695833, 45.716667 ], [ 2.695, 45.716667 ], [ 2.695, 45.7175 ], [ 2.693333, 45.7175 ], [ 2.693333, 45.718333 ], [ 2.6925, 45.718333 ], [ 2.6925, 45.719167 ], [ 2.691667, 45.719167 ], [ 2.691667, 45.72 ], [ 2.690833, 45.72 ], [ 2.690833, 45.720833 ], [ 2.69, 45.720833 ], [ 2.69, 45.721667 ], [ 2.688333, 45.721667 ], [ 2.688333, 45.7225 ], [ 2.6875, 45.7225 ], [ 2.6875, 45.723333 ], [ 2.685833, 45.723333 ], [ 2.685833, 45.7225 ], [ 2.685, 45.7225 ], [ 2.685, 45.721667 ], [ 2.683333, 45.721667 ], [ 2.683333, 45.720833 ], [ 2.6825, 45.720833 ], [ 2.6825, 45.72 ], [ 2.681667, 45.72 ], [ 2.681667, 45.719167 ], [ 2.68, 45.719167 ], [ 2.68, 45.718333 ], [ 2.679167, 45.718333 ], [ 2.679167, 45.7175 ], [ 2.676667, 45.7175 ], [ 2.676667, 45.716667 ], [ 2.675833, 45.716667 ], [ 2.675833, 45.715 ], [ 2.675, 45.715 ], [ 2.675, 45.714167 ], [ 2.674167, 45.714167 ], [ 2.674167, 45.709167 ], [ 2.673333, 45.709167 ], [ 2.673333, 45.708333 ], [ 2.6725, 45.708333 ], [ 2.6725, 45.7075 ], [ 2.670833, 45.7075 ], [ 2.670833, 45.706667 ], [ 2.6675, 45.706667 ], [ 2.6675, 45.7075 ], [ 2.665, 45.7075 ], [ 2.665, 45.708333 ], [ 2.659167, 45.708333 ], [ 2.659167, 45.709167 ], [ 2.658333, 45.709167 ], [ 2.658333, 45.7125 ], [ 2.6575, 45.7125 ], [ 2.6575, 45.713333 ], [ 2.655833, 45.713333 ], [ 2.655833, 45.714167 ], [ 2.655, 45.714167 ], [ 2.655, 45.713333 ], [ 2.653333, 45.713333 ], [ 2.653333, 45.7125 ], [ 2.650833, 45.7125 ], [ 2.650833, 45.711667 ], [ 2.65, 45.711667 ], [ 2.65, 45.710833 ], [ 2.646667, 45.710833 ], [ 2.646667, 45.71 ], [ 2.645, 45.71 ], [ 2.645, 45.710833 ], [ 2.635, 45.710833 ], [ 2.635, 45.711667 ], [ 2.630833, 45.711667 ], [ 2.630833, 45.710833 ], [ 2.63, 45.710833 ], [ 2.63, 45.711667 ], [ 2.628333, 45.711667 ], [ 2.628333, 45.7125 ], [ 2.623333, 45.7125 ], [ 2.623333, 45.713333 ], [ 2.6225, 45.713333 ], [ 2.6225, 45.714167 ], [ 2.621667, 45.714167 ], [ 2.621667, 45.715 ], [ 2.620833, 45.715 ], [ 2.620833, 45.715833 ], [ 2.619167, 45.715833 ], [ 2.619167, 45.716667 ], [ 2.618333, 45.716667 ], [ 2.618333, 45.7175 ], [ 2.6175, 45.7175 ], [ 2.6175, 45.718333 ], [ 2.616667, 45.718333 ], [ 2.616667, 45.719167 ], [ 2.6125, 45.719167 ], [ 2.6125, 45.718333 ], [ 2.610833, 45.718333 ], [ 2.610833, 45.7175 ], [ 2.609167, 45.7175 ], [ 2.609167, 45.716667 ], [ 2.605833, 45.716667 ], [ 2.605833, 45.715833 ], [ 2.604167, 45.715833 ], [ 2.604167, 45.715 ], [ 2.601667, 45.715 ], [ 2.601667, 45.714167 ], [ 2.599167, 45.714167 ], [ 2.599167, 45.713333 ], [ 2.596667, 45.713333 ], [ 2.596667, 45.7125 ], [ 2.591667, 45.7125 ], [ 2.591667, 45.713333 ], [ 2.590833, 45.713333 ], [ 2.590833, 45.7125 ], [ 2.59, 45.7125 ], [ 2.59, 45.711667 ], [ 2.585833, 45.711667 ], [ 2.585833, 45.713333 ], [ 2.584167, 45.713333 ], [ 2.584167, 45.714167 ], [ 2.581667, 45.714167 ], [ 2.581667, 45.715 ], [ 2.58, 45.715 ], [ 2.58, 45.714167 ], [ 2.578333, 45.714167 ], [ 2.578333, 45.7125 ], [ 2.5775, 45.7125 ], [ 2.5775, 45.711667 ], [ 2.570833, 45.711667 ], [ 2.570833, 45.710833 ], [ 2.566667, 45.710833 ], [ 2.566667, 45.71 ], [ 2.561667, 45.71 ], [ 2.561667, 45.7125 ], [ 2.559167, 45.7125 ], [ 2.559167, 45.713333 ], [ 2.5575, 45.713333 ], [ 2.5575, 45.7125 ], [ 2.555, 45.7125 ], [ 2.555, 45.713333 ], [ 2.554167, 45.713333 ], [ 2.554167, 45.715833 ], [ 2.553333, 45.715833 ], [ 2.553333, 45.716667 ], [ 2.5525, 45.716667 ], [ 2.5525, 45.7175 ], [ 2.550833, 45.7175 ], [ 2.550833, 45.718333 ], [ 2.55, 45.718333 ], [ 2.55, 45.716667 ], [ 2.549167, 45.716667 ], [ 2.549167, 45.715 ], [ 2.548333, 45.715 ], [ 2.548333, 45.715833 ], [ 2.541667, 45.715833 ], [ 2.541667, 45.716667 ], [ 2.540833, 45.716667 ], [ 2.540833, 45.715 ], [ 2.54, 45.715 ], [ 2.54, 45.7175 ], [ 2.5375, 45.7175 ], [ 2.5375, 45.718333 ], [ 2.536667, 45.718333 ], [ 2.536667, 45.72 ], [ 2.535833, 45.72 ], [ 2.535833, 45.7225 ], [ 2.535, 45.7225 ], [ 2.535, 45.723333 ], [ 2.533333, 45.723333 ], [ 2.533333, 45.724167 ], [ 2.5325, 45.724167 ], [ 2.5325, 45.725 ], [ 2.531667, 45.725 ], [ 2.531667, 45.729167 ], [ 2.530833, 45.729167 ], [ 2.530833, 45.73 ], [ 2.531667, 45.73 ], [ 2.531667, 45.731667 ], [ 2.5325, 45.731667 ], [ 2.5325, 45.733333 ], [ 2.531667, 45.733333 ], [ 2.531667, 45.734167 ], [ 2.530833, 45.734167 ], [ 2.530833, 45.733333 ], [ 2.53, 45.733333 ], [ 2.53, 45.7325 ], [ 2.529167, 45.7325 ], [ 2.529167, 45.731667 ], [ 2.525, 45.731667 ], [ 2.525, 45.7325 ], [ 2.5225, 45.7325 ], [ 2.5225, 45.733333 ], [ 2.521667, 45.733333 ], [ 2.521667, 45.734167 ], [ 2.520833, 45.734167 ], [ 2.520833, 45.735 ], [ 2.521667, 45.735 ], [ 2.521667, 45.740833 ], [ 2.5225, 45.740833 ], [ 2.5225, 45.743333 ], [ 2.523333, 45.743333 ], [ 2.523333, 45.745 ], [ 2.5225, 45.745 ], [ 2.5225, 45.746667 ], [ 2.521667, 45.746667 ], [ 2.521667, 45.749167 ], [ 2.520833, 45.749167 ], [ 2.520833, 45.751667 ], [ 2.516667, 45.751667 ], [ 2.516667, 45.7525 ], [ 2.51, 45.7525 ], [ 2.51, 45.753333 ], [ 2.509167, 45.753333 ], [ 2.509167, 45.754167 ], [ 2.505833, 45.754167 ], [ 2.505833, 45.755 ], [ 2.504167, 45.755 ], [ 2.504167, 45.755833 ], [ 2.503333, 45.755833 ], [ 2.503333, 45.756667 ], [ 2.499167, 45.756667 ], [ 2.499167, 45.755833 ], [ 2.494167, 45.755833 ], [ 2.494167, 45.755 ], [ 2.490833, 45.755 ], [ 2.490833, 45.755833 ], [ 2.488333, 45.755833 ], [ 2.488333, 45.755 ], [ 2.486667, 45.755 ], [ 2.486667, 45.758333 ], [ 2.484167, 45.758333 ], [ 2.484167, 45.76 ], [ 2.483333, 45.76 ], [ 2.483333, 45.760833 ], [ 2.4825, 45.760833 ], [ 2.4825, 45.7625 ], [ 2.481667, 45.7625 ], [ 2.481667, 45.763333 ], [ 2.480833, 45.763333 ], [ 2.480833, 45.765833 ], [ 2.48, 45.765833 ], [ 2.48, 45.766667 ], [ 2.479167, 45.766667 ], [ 2.479167, 45.769167 ], [ 2.478333, 45.769167 ], [ 2.478333, 45.770833 ], [ 2.4775, 45.770833 ], [ 2.4775, 45.771667 ], [ 2.473333, 45.771667 ], [ 2.473333, 45.773333 ], [ 2.4725, 45.773333 ], [ 2.4725, 45.774167 ], [ 2.47, 45.774167 ], [ 2.47, 45.773333 ], [ 2.466667, 45.773333 ], [ 2.466667, 45.7725 ], [ 2.464167, 45.7725 ], [ 2.464167, 45.775 ], [ 2.461667, 45.775 ], [ 2.461667, 45.775833 ], [ 2.460833, 45.775833 ], [ 2.460833, 45.776667 ], [ 2.46, 45.776667 ], [ 2.46, 45.7775 ], [ 2.459167, 45.7775 ], [ 2.459167, 45.778333 ], [ 2.456667, 45.778333 ], [ 2.456667, 45.78 ], [ 2.455, 45.78 ], [ 2.455, 45.781667 ], [ 2.449167, 45.781667 ], [ 2.449167, 45.785 ], [ 2.45, 45.785 ], [ 2.45, 45.786667 ], [ 2.449167, 45.786667 ], [ 2.449167, 45.788333 ], [ 2.448333, 45.788333 ], [ 2.448333, 45.789167 ], [ 2.4475, 45.789167 ], [ 2.4475, 45.790833 ], [ 2.446667, 45.790833 ], [ 2.446667, 45.7925 ], [ 2.445833, 45.7925 ], [ 2.445833, 45.796667 ], [ 2.446667, 45.796667 ], [ 2.446667, 45.798333 ], [ 2.4475, 45.798333 ], [ 2.4475, 45.799167 ], [ 2.448333, 45.799167 ], [ 2.448333, 45.8 ], [ 2.449167, 45.8 ], [ 2.449167, 45.801667 ], [ 2.448333, 45.801667 ], [ 2.448333, 45.8025 ], [ 2.446667, 45.8025 ], [ 2.446667, 45.803333 ], [ 2.445833, 45.803333 ], [ 2.445833, 45.804167 ], [ 2.444167, 45.804167 ], [ 2.444167, 45.808333 ], [ 2.445, 45.808333 ], [ 2.445, 45.81 ], [ 2.4425, 45.81 ], [ 2.4425, 45.810833 ], [ 2.441667, 45.810833 ], [ 2.441667, 45.811667 ], [ 2.44, 45.811667 ], [ 2.44, 45.8125 ], [ 2.439167, 45.8125 ], [ 2.439167, 45.815 ], [ 2.44, 45.815 ], [ 2.44, 45.8175 ], [ 2.440833, 45.8175 ], [ 2.440833, 45.82 ], [ 2.443333, 45.82 ], [ 2.443333, 45.820833 ], [ 2.445833, 45.820833 ], [ 2.445833, 45.821667 ], [ 2.4475, 45.821667 ], [ 2.4475, 45.824167 ], [ 2.446667, 45.824167 ], [ 2.446667, 45.83 ], [ 2.445833, 45.83 ], [ 2.445833, 45.831667 ], [ 2.445, 45.831667 ], [ 2.445, 45.833333 ], [ 2.4425, 45.833333 ], [ 2.4425, 45.835833 ], [ 2.440833, 45.835833 ], [ 2.440833, 45.835 ], [ 2.439167, 45.835 ], [ 2.439167, 45.8375 ], [ 2.435833, 45.8375 ], [ 2.435833, 45.84 ], [ 2.434167, 45.84 ], [ 2.434167, 45.840833 ], [ 2.433333, 45.840833 ], [ 2.433333, 45.841667 ], [ 2.428333, 45.841667 ], [ 2.428333, 45.840833 ], [ 2.426667, 45.840833 ], [ 2.426667, 45.84 ], [ 2.425, 45.84 ], [ 2.425, 45.839167 ], [ 2.4225, 45.839167 ], [ 2.4225, 45.838333 ], [ 2.420833, 45.838333 ], [ 2.420833, 45.839167 ], [ 2.42, 45.839167 ], [ 2.42, 45.84 ], [ 2.419167, 45.84 ], [ 2.419167, 45.840833 ], [ 2.418333, 45.840833 ], [ 2.418333, 45.8425 ], [ 2.4175, 45.8425 ], [ 2.4175, 45.843333 ], [ 2.415, 45.843333 ], [ 2.415, 45.845 ], [ 2.414167, 45.845 ], [ 2.414167, 45.8475 ], [ 2.413333, 45.8475 ], [ 2.413333, 45.848333 ], [ 2.4125, 45.848333 ], [ 2.4125, 45.849167 ], [ 2.411667, 45.849167 ], [ 2.411667, 45.85 ], [ 2.410833, 45.85 ], [ 2.410833, 45.850833 ], [ 2.41, 45.850833 ], [ 2.41, 45.855 ], [ 2.409167, 45.855 ], [ 2.409167, 45.855833 ], [ 2.410833, 45.855833 ], [ 2.410833, 45.856667 ], [ 2.4125, 45.856667 ], [ 2.4125, 45.8575 ], [ 2.414167, 45.8575 ], [ 2.414167, 45.858333 ], [ 2.415833, 45.858333 ], [ 2.415833, 45.86 ], [ 2.416667, 45.86 ], [ 2.416667, 45.860833 ], [ 2.4175, 45.860833 ], [ 2.4175, 45.861667 ], [ 2.418333, 45.861667 ], [ 2.418333, 45.8625 ], [ 2.419167, 45.8625 ], [ 2.419167, 45.863333 ], [ 2.420833, 45.863333 ], [ 2.420833, 45.8625 ], [ 2.421667, 45.8625 ], [ 2.421667, 45.861667 ], [ 2.423333, 45.861667 ], [ 2.423333, 45.8625 ], [ 2.425, 45.8625 ], [ 2.425, 45.865 ], [ 2.425833, 45.865 ], [ 2.425833, 45.865833 ], [ 2.426667, 45.865833 ], [ 2.426667, 45.866667 ], [ 2.428333, 45.866667 ], [ 2.428333, 45.8675 ], [ 2.429167, 45.8675 ], [ 2.429167, 45.87 ], [ 2.43, 45.87 ], [ 2.43, 45.871667 ], [ 2.430833, 45.871667 ], [ 2.430833, 45.873333 ], [ 2.4325, 45.873333 ], [ 2.4325, 45.874167 ], [ 2.433333, 45.874167 ], [ 2.433333, 45.875 ], [ 2.4325, 45.875 ], [ 2.4325, 45.876667 ], [ 2.433333, 45.876667 ], [ 2.433333, 45.8775 ], [ 2.434167, 45.8775 ], [ 2.434167, 45.878333 ], [ 2.435, 45.878333 ], [ 2.435, 45.879167 ], [ 2.435833, 45.879167 ], [ 2.435833, 45.881667 ], [ 2.436667, 45.881667 ], [ 2.436667, 45.884167 ], [ 2.434167, 45.884167 ], [ 2.434167, 45.885 ], [ 2.433333, 45.885 ], [ 2.433333, 45.884167 ], [ 2.430833, 45.884167 ], [ 2.430833, 45.885 ], [ 2.431667, 45.885 ], [ 2.431667, 45.8875 ], [ 2.4325, 45.8875 ], [ 2.4325, 45.889167 ], [ 2.433333, 45.889167 ], [ 2.433333, 45.891667 ], [ 2.431667, 45.891667 ], [ 2.431667, 45.893333 ], [ 2.430833, 45.893333 ], [ 2.430833, 45.894167 ], [ 2.43, 45.894167 ], [ 2.43, 45.8975 ], [ 2.430833, 45.8975 ], [ 2.430833, 45.898333 ], [ 2.431667, 45.898333 ], [ 2.431667, 45.899167 ], [ 2.4325, 45.899167 ], [ 2.4325, 45.9 ], [ 2.436667, 45.9 ], [ 2.436667, 45.900833 ], [ 2.4375, 45.900833 ], [ 2.4375, 45.901667 ], [ 2.439167, 45.901667 ], [ 2.439167, 45.903333 ], [ 2.44, 45.903333 ], [ 2.44, 45.904167 ], [ 2.440833, 45.904167 ], [ 2.440833, 45.905 ], [ 2.441667, 45.905 ], [ 2.441667, 45.906667 ], [ 2.4425, 45.906667 ], [ 2.4425, 45.9075 ], [ 2.446667, 45.9075 ], [ 2.446667, 45.908333 ], [ 2.449167, 45.908333 ], [ 2.449167, 45.909167 ], [ 2.45, 45.909167 ], [ 2.45, 45.91 ], [ 2.450833, 45.91 ], [ 2.450833, 45.910833 ], [ 2.451667, 45.910833 ], [ 2.451667, 45.911667 ], [ 2.454167, 45.911667 ], [ 2.454167, 45.913333 ], [ 2.455, 45.913333 ], [ 2.455, 45.915 ], [ 2.454167, 45.915 ], [ 2.454167, 45.9175 ], [ 2.455, 45.9175 ], [ 2.455, 45.918333 ], [ 2.455833, 45.918333 ], [ 2.455833, 45.925833 ], [ 2.4575, 45.925833 ], [ 2.4575, 45.925 ], [ 2.460833, 45.925 ], [ 2.460833, 45.924167 ], [ 2.461667, 45.924167 ], [ 2.461667, 45.923333 ], [ 2.4625, 45.923333 ], [ 2.4625, 45.9225 ], [ 2.466667, 45.9225 ], [ 2.466667, 45.924167 ], [ 2.4675, 45.924167 ], [ 2.4675, 45.920833 ], [ 2.468333, 45.920833 ], [ 2.468333, 45.92 ], [ 2.47, 45.92 ], [ 2.47, 45.919167 ], [ 2.4725, 45.919167 ], [ 2.4725, 45.918333 ], [ 2.473333, 45.918333 ], [ 2.473333, 45.9175 ], [ 2.474167, 45.9175 ], [ 2.474167, 45.918333 ], [ 2.475, 45.918333 ], [ 2.475, 45.919167 ], [ 2.475833, 45.919167 ], [ 2.475833, 45.92 ], [ 2.4775, 45.92 ], [ 2.4775, 45.920833 ], [ 2.479167, 45.920833 ], [ 2.479167, 45.92 ], [ 2.48, 45.92 ], [ 2.48, 45.919167 ], [ 2.483333, 45.919167 ], [ 2.483333, 45.92 ], [ 2.485, 45.92 ], [ 2.485, 45.921667 ], [ 2.486667, 45.921667 ], [ 2.486667, 45.9225 ], [ 2.488333, 45.9225 ], [ 2.488333, 45.923333 ], [ 2.49, 45.923333 ], [ 2.49, 45.924167 ], [ 2.490833, 45.924167 ], [ 2.490833, 45.925833 ], [ 2.491667, 45.925833 ], [ 2.491667, 45.9275 ], [ 2.4925, 45.9275 ], [ 2.4925, 45.928333 ], [ 2.493333, 45.928333 ], [ 2.493333, 45.931667 ], [ 2.494167, 45.931667 ], [ 2.494167, 45.9325 ], [ 2.495833, 45.9325 ], [ 2.495833, 45.934167 ], [ 2.496667, 45.934167 ], [ 2.496667, 45.935833 ], [ 2.4975, 45.935833 ], [ 2.4975, 45.936667 ], [ 2.498333, 45.936667 ], [ 2.498333, 45.9375 ], [ 2.499167, 45.9375 ], [ 2.499167, 45.938333 ], [ 2.503333, 45.938333 ], [ 2.503333, 45.939167 ], [ 2.504167, 45.939167 ], [ 2.504167, 45.94 ], [ 2.505, 45.94 ], [ 2.505, 45.939167 ], [ 2.5075, 45.939167 ], [ 2.5075, 45.938333 ], [ 2.51, 45.938333 ], [ 2.51, 45.936667 ], [ 2.515, 45.936667 ], [ 2.515, 45.9375 ], [ 2.5175, 45.9375 ], [ 2.5175, 45.939167 ], [ 2.518333, 45.939167 ], [ 2.518333, 45.94 ], [ 2.519167, 45.94 ], [ 2.519167, 45.940833 ], [ 2.52, 45.940833 ], [ 2.52, 45.941667 ], [ 2.520833, 45.941667 ], [ 2.520833, 45.9425 ], [ 2.521667, 45.9425 ], [ 2.521667, 45.943333 ], [ 2.5225, 45.943333 ], [ 2.5225, 45.944167 ], [ 2.5325, 45.944167 ], [ 2.5325, 45.945 ], [ 2.533333, 45.945 ], [ 2.533333, 45.945833 ], [ 2.534167, 45.945833 ], [ 2.534167, 45.9475 ], [ 2.535833, 45.9475 ], [ 2.535833, 45.949167 ], [ 2.536667, 45.949167 ], [ 2.536667, 45.95 ], [ 2.538333, 45.95 ], [ 2.538333, 45.951667 ], [ 2.54, 45.951667 ], [ 2.54, 45.954167 ], [ 2.540833, 45.954167 ], [ 2.540833, 45.955833 ], [ 2.5425, 45.955833 ], [ 2.5425, 45.956667 ], [ 2.543333, 45.956667 ], [ 2.543333, 45.959167 ], [ 2.544167, 45.959167 ], [ 2.544167, 45.965 ], [ 2.546667, 45.965 ], [ 2.546667, 45.964167 ], [ 2.550833, 45.964167 ], [ 2.550833, 45.963333 ], [ 2.551667, 45.963333 ], [ 2.551667, 45.9625 ], [ 2.5525, 45.9625 ], [ 2.5525, 45.960833 ], [ 2.553333, 45.960833 ], [ 2.553333, 45.96 ], [ 2.555, 45.96 ], [ 2.555, 45.959167 ], [ 2.555833, 45.959167 ], [ 2.555833, 45.958333 ], [ 2.556667, 45.958333 ], [ 2.556667, 45.9575 ], [ 2.559167, 45.9575 ], [ 2.559167, 45.956667 ], [ 2.565, 45.956667 ], [ 2.565, 45.9575 ], [ 2.566667, 45.9575 ], [ 2.566667, 45.956667 ], [ 2.568333, 45.956667 ], [ 2.568333, 45.958333 ], [ 2.569167, 45.958333 ], [ 2.569167, 45.960833 ], [ 2.573333, 45.960833 ], [ 2.573333, 45.96 ], [ 2.576667, 45.96 ], [ 2.576667, 45.960833 ], [ 2.5775, 45.960833 ], [ 2.5775, 45.9625 ], [ 2.578333, 45.9625 ], [ 2.578333, 45.963333 ], [ 2.58, 45.963333 ], [ 2.58, 45.968333 ], [ 2.579167, 45.968333 ], [ 2.579167, 45.97 ], [ 2.578333, 45.97 ], [ 2.578333, 45.971667 ], [ 2.579167, 45.971667 ], [ 2.579167, 45.9725 ], [ 2.58, 45.9725 ], [ 2.58, 45.973333 ], [ 2.5825, 45.973333 ], [ 2.5825, 45.974167 ], [ 2.584167, 45.974167 ], [ 2.584167, 45.975833 ], [ 2.585, 45.975833 ], [ 2.585, 45.976667 ], [ 2.585833, 45.976667 ], [ 2.585833, 45.9775 ], [ 2.586667, 45.9775 ], [ 2.586667, 45.979167 ], [ 2.5875, 45.979167 ], [ 2.5875, 45.98 ], [ 2.594167, 45.98 ], [ 2.594167, 45.980833 ], [ 2.593333, 45.980833 ], [ 2.593333, 45.9825 ], [ 2.594167, 45.9825 ], [ 2.594167, 45.983333 ], [ 2.595, 45.983333 ], [ 2.595, 45.984167 ], [ 2.596667, 45.984167 ], [ 2.596667, 45.986667 ], [ 2.5975, 45.986667 ], [ 2.5975, 45.9875 ], [ 2.599167, 45.9875 ], [ 2.599167, 45.986667 ], [ 2.600833, 45.986667 ], [ 2.600833, 45.985 ], [ 2.606667, 45.985 ], [ 2.606667, 45.984167 ], [ 2.6075, 45.984167 ], [ 2.6075, 45.985 ], [ 2.609167, 45.985 ], [ 2.609167, 45.985833 ], [ 2.6125, 45.985833 ], [ 2.6125, 45.9875 ], [ 2.613333, 45.9875 ], [ 2.613333, 45.989167 ], [ 2.614167, 45.989167 ], [ 2.614167, 45.990833 ], [ 2.615833, 45.990833 ], [ 2.615833, 45.9925 ], [ 2.616667, 45.9925 ], [ 2.616667, 45.993333 ], [ 2.618333, 45.993333 ], [ 2.618333, 45.994167 ], [ 2.619167, 45.994167 ], [ 2.619167, 45.995833 ], [ 2.62, 45.995833 ], [ 2.62, 45.996667 ], [ 2.620833, 45.996667 ], [ 2.620833, 45.9975 ], [ 2.621667, 45.9975 ], [ 2.621667, 45.998333 ], [ 2.6225, 45.998333 ], [ 2.6225, 45.999167 ], [ 2.626667, 45.999167 ], [ 2.626667, 46.0 ], [ 2.628333, 46.0 ], [ 2.628333, 46.000833 ], [ 2.63, 46.000833 ], [ 2.63, 46.001667 ], [ 2.630833, 46.001667 ], [ 2.630833, 46.0025 ], [ 2.635833, 46.0025 ], [ 2.635833, 46.003333 ], [ 2.6375, 46.003333 ], [ 2.6375, 46.0025 ], [ 2.638333, 46.0025 ], [ 2.638333, 46.001667 ], [ 2.64, 46.001667 ], [ 2.64, 46.0025 ], [ 2.65, 46.0025 ], [ 2.65, 46.001667 ], [ 2.6525, 46.001667 ], [ 2.6525, 46.000833 ], [ 2.653333, 46.000833 ], [ 2.653333, 46.0 ], [ 2.655, 46.0 ], [ 2.655, 46.000833 ], [ 2.656667, 46.000833 ], [ 2.656667, 46.001667 ], [ 2.658333, 46.001667 ], [ 2.658333, 46.0025 ], [ 2.659167, 46.0025 ], [ 2.659167, 46.003333 ], [ 2.666667, 46.003333 ], [ 2.666667, 46.0025 ], [ 2.6675, 46.0025 ], [ 2.6675, 46.003333 ], [ 2.668333, 46.003333 ], [ 2.668333, 46.004167 ], [ 2.669167, 46.004167 ], [ 2.669167, 46.005 ], [ 2.6725, 46.005 ], [ 2.6725, 46.005833 ], [ 2.673333, 46.005833 ], [ 2.673333, 46.006667 ], [ 2.674167, 46.006667 ], [ 2.674167, 46.0075 ], [ 2.675, 46.0075 ], [ 2.675, 46.008333 ], [ 2.675833, 46.008333 ], [ 2.675833, 46.009167 ], [ 2.676667, 46.009167 ], [ 2.676667, 46.011667 ], [ 2.6775, 46.011667 ], [ 2.6775, 46.013333 ], [ 2.679167, 46.013333 ], [ 2.679167, 46.014167 ], [ 2.68, 46.014167 ], [ 2.68, 46.0175 ], [ 2.679167, 46.0175 ], [ 2.679167, 46.019167 ], [ 2.68, 46.019167 ], [ 2.68, 46.02 ], [ 2.680833, 46.02 ], [ 2.680833, 46.020833 ], [ 2.681667, 46.020833 ], [ 2.681667, 46.021667 ], [ 2.6825, 46.021667 ], [ 2.6825, 46.0225 ], [ 2.683333, 46.0225 ], [ 2.683333, 46.021667 ], [ 2.684167, 46.021667 ], [ 2.684167, 46.0225 ], [ 2.685, 46.0225 ], [ 2.685, 46.024167 ], [ 2.685833, 46.024167 ], [ 2.685833, 46.025 ], [ 2.685, 46.025 ], [ 2.685, 46.025833 ], [ 2.683333, 46.025833 ], [ 2.683333, 46.026667 ], [ 2.6825, 46.026667 ], [ 2.6825, 46.0275 ], [ 2.680833, 46.0275 ], [ 2.680833, 46.029167 ], [ 2.68, 46.029167 ], [ 2.68, 46.03 ], [ 2.679167, 46.03 ], [ 2.679167, 46.030833 ], [ 2.678333, 46.030833 ], [ 2.678333, 46.031667 ], [ 2.6775, 46.031667 ], [ 2.6775, 46.030833 ], [ 2.675, 46.030833 ], [ 2.675, 46.03 ], [ 2.6725, 46.03 ], [ 2.6725, 46.034167 ], [ 2.673333, 46.034167 ], [ 2.673333, 46.035 ], [ 2.674167, 46.035 ], [ 2.674167, 46.035833 ], [ 2.675, 46.035833 ], [ 2.675, 46.036667 ], [ 2.675833, 46.036667 ], [ 2.675833, 46.039167 ], [ 2.676667, 46.039167 ], [ 2.676667, 46.038333 ], [ 2.6825, 46.038333 ], [ 2.6825, 46.039167 ], [ 2.683333, 46.039167 ], [ 2.683333, 46.04 ], [ 2.684167, 46.04 ], [ 2.684167, 46.043333 ], [ 2.685833, 46.043333 ], [ 2.685833, 46.044167 ], [ 2.686667, 46.044167 ], [ 2.686667, 46.043333 ], [ 2.693333, 46.043333 ], [ 2.693333, 46.044167 ], [ 2.694167, 46.044167 ], [ 2.694167, 46.045 ], [ 2.695, 46.045 ], [ 2.695, 46.044167 ], [ 2.700833, 46.044167 ], [ 2.700833, 46.045 ], [ 2.701667, 46.045 ], [ 2.701667, 46.046667 ], [ 2.703333, 46.046667 ], [ 2.703333, 46.0475 ], [ 2.705, 46.0475 ], [ 2.705, 46.046667 ], [ 2.706667, 46.046667 ], [ 2.706667, 46.0475 ], [ 2.7075, 46.0475 ], [ 2.7075, 46.048333 ], [ 2.708333, 46.048333 ], [ 2.708333, 46.049167 ], [ 2.7075, 46.049167 ], [ 2.7075, 46.050833 ], [ 2.706667, 46.050833 ], [ 2.706667, 46.053333 ], [ 2.705, 46.053333 ], [ 2.705, 46.054167 ], [ 2.703333, 46.054167 ], [ 2.703333, 46.055833 ], [ 2.704167, 46.055833 ], [ 2.704167, 46.056667 ], [ 2.703333, 46.056667 ], [ 2.703333, 46.059167 ], [ 2.7025, 46.059167 ], [ 2.7025, 46.06 ], [ 2.701667, 46.06 ], [ 2.701667, 46.060833 ], [ 2.704167, 46.060833 ], [ 2.704167, 46.061667 ], [ 2.705833, 46.061667 ], [ 2.705833, 46.0625 ], [ 2.706667, 46.0625 ], [ 2.706667, 46.061667 ], [ 2.7075, 46.061667 ], [ 2.7075, 46.060833 ], [ 2.71, 46.060833 ], [ 2.71, 46.063333 ], [ 2.710833, 46.063333 ], [ 2.710833, 46.064167 ], [ 2.711667, 46.064167 ], [ 2.711667, 46.065 ], [ 2.7125, 46.065 ], [ 2.7125, 46.066667 ], [ 2.715, 46.066667 ], [ 2.715, 46.0675 ], [ 2.715833, 46.0675 ], [ 2.715833, 46.069167 ], [ 2.716667, 46.069167 ], [ 2.716667, 46.070833 ], [ 2.718333, 46.070833 ], [ 2.718333, 46.07 ], [ 2.724167, 46.07 ], [ 2.724167, 46.070833 ], [ 2.726667, 46.070833 ], [ 2.726667, 46.071667 ], [ 2.7275, 46.071667 ], [ 2.7275, 46.0725 ], [ 2.728333, 46.0725 ], [ 2.728333, 46.073333 ], [ 2.73, 46.073333 ], [ 2.73, 46.074167 ], [ 2.733333, 46.074167 ], [ 2.733333, 46.075 ], [ 2.739167, 46.075 ], [ 2.739167, 46.075833 ], [ 2.74, 46.075833 ], [ 2.74, 46.076667 ], [ 2.739167, 46.076667 ], [ 2.739167, 46.0775 ], [ 2.74, 46.0775 ], [ 2.74, 46.078333 ], [ 2.740833, 46.078333 ], [ 2.740833, 46.079167 ], [ 2.7425, 46.079167 ], [ 2.7425, 46.08 ], [ 2.744167, 46.08 ], [ 2.744167, 46.083333 ], [ 2.745, 46.083333 ], [ 2.745, 46.084167 ], [ 2.746667, 46.084167 ], [ 2.746667, 46.085833 ], [ 2.7475, 46.085833 ], [ 2.7475, 46.089167 ], [ 2.746667, 46.089167 ], [ 2.746667, 46.09 ], [ 2.7475, 46.09 ], [ 2.7475, 46.090833 ], [ 2.75, 46.090833 ], [ 2.75, 46.09 ], [ 2.750833, 46.09 ], [ 2.750833, 46.089167 ], [ 2.754167, 46.089167 ], [ 2.754167, 46.09 ], [ 2.756667, 46.09 ], [ 2.756667, 46.089167 ], [ 2.76, 46.089167 ], [ 2.76, 46.09 ], [ 2.761667, 46.09 ], [ 2.761667, 46.090833 ], [ 2.7625, 46.090833 ], [ 2.7625, 46.091667 ], [ 2.763333, 46.091667 ], [ 2.763333, 46.0925 ], [ 2.765833, 46.0925 ], [ 2.765833, 46.093333 ], [ 2.7675, 46.093333 ], [ 2.7675, 46.094167 ], [ 2.769167, 46.094167 ], [ 2.769167, 46.095 ], [ 2.77, 46.095 ] ] ] } }
]
}
