{
"type": "FeatureCollection",
"name": "meta_reservoirs_simple_control",
"crs": { "type": "name", "properties": { "name": "urn:ogc:def:crs:OGC:1.3:CRS84" } },
"features": [
{ "type": "Feature", "properties": { "Hylak_id": 170174, "Lake_name": null, "Country": "France", "Continent": "Europe", "Poly_src": "SWBD", "Lake_type": 2, "waterbody_id": 3381, "Area_avg": 2440000.0, "Shore_len": 26.68, "Shore_dev": 4.82, "Vol_avg": 69000000.0, "Vol_res": 69.0, "Vol_src": 2, "Depth_avg": 28.3, "Dis_avg": 16.302, "Res_time": 49.0, "Elevation": 507, "Slope_100": 15.52, "Wshd_area": 1294.5, "xout": 2.795, "yout": 45.9775, "G_GRAND_ID": 3381.0, "Dam_height": 68.0, "G_DAM_LEN_": 235.0, "G_CAP_MCM": 69.0, "Capacity_max": -99000000.0, "Capacity_norm": 69000000.0, "Capacity_min": -99000000.0, "G_DEPTH_M": 28.8, "G_MAIN_USE": "Hydroelectricity", "G_QUALITY": "3: Fair", "watprovID": 806, "ID": 4997, "GRanD_DAM_": "Les Fades", "GRanD_RIVE": "Sioule", "GRanD_NEAR": "Clermont Ferrand", "db_Status Active Yes/No": null, "db_Max Level (m), HL": 28.3, "db_Max Surface Area (ha), HL": 244, "db_Max Surface Area (ha), JRC": 207.3190576, "db_Min Surface Area (ha), JRC": 0.0626, "db_Normal Surface Area (ha), JRC": 179.0559, "db_Count frequency Normal Area": 14, "db_Max Capacity (Mcm), HL": 69.0, "db_Min Capacity (Mcm), GR": -99.0, "db_Normal Capacity (Mcm), GR": 69.0, "db_Main Use, GR": "Hydroelectricity", "db_Water Province": 806, "db_HydroLakes_ID": 170174, "db_Dam height [m]": 68, "reservoir_max_volume": 69000000.0, "reservoir_area": 3138799.0, "reservoir_initial_depth": 21.982931, "reservoir_rating_curve": 4, "reservoir_storage_curve": 1, "reservoir_demand": 8.151, "reservoir_max_release": 65.208, "reservoir_target_full_fraction": "1.0", "reservoir_target_min_fraction": "0.0034301395937895657" }, "geometry": { "type": "MultiPolygon", "coordinates": [ [ [ [ 2.791801, 45.968526 ], [ 2.791722, 45.962634 ], [ 2.790238, 45.9599 ], [ 2.788339, 45.958406 ], [ 2.788953, 45.957378 ], [ 2.791343, 45.956009 ], [ 2.791405, 45.952517 ], [ 2.790625, 45.952104 ], [ 2.784791, 45.952335 ], [ 2.782128, 45.951827 ], [ 2.781415, 45.951166 ], [ 2.780818, 45.948475 ], [ 2.778264, 45.94521 ], [ 2.778376, 45.942381 ], [ 2.777808, 45.940585 ], [ 2.775983, 45.939329 ], [ 2.773576, 45.938193 ], [ 2.772228, 45.936106 ], [ 2.770005, 45.933592 ], [ 2.770272, 45.932217 ], [ 2.771361, 45.930634 ], [ 2.771701, 45.929339 ], [ 2.771628, 45.92751 ], [ 2.773179, 45.926778 ], [ 2.774728, 45.925561 ], [ 2.775505, 45.924358 ], [ 2.779682, 45.923362 ], [ 2.780583, 45.922886 ], [ 2.785826, 45.923094 ], [ 2.78586, 45.922239 ], [ 2.78444, 45.921741 ], [ 2.77808, 45.921918 ], [ 2.774819, 45.922772 ], [ 2.772408, 45.921922 ], [ 2.768889, 45.918512 ], [ 2.767228, 45.917495 ], [ 2.76555, 45.917228 ], [ 2.762418, 45.916004 ], [ 2.761159, 45.914838 ], [ 2.76041, 45.912703 ], [ 2.761189, 45.910354 ], [ 2.760839, 45.908883 ], [ 2.760042, 45.908067 ], [ 2.757834, 45.90695 ], [ 2.754906, 45.90734 ], [ 2.752536, 45.909717 ], [ 2.750701, 45.909291 ], [ 2.746248, 45.904814 ], [ 2.744583, 45.904306 ], [ 2.740839, 45.904449 ], [ 2.739944, 45.905027 ], [ 2.73915, 45.905838 ], [ 2.739172, 45.906393 ], [ 2.738617, 45.907979 ], [ 2.739982, 45.910272 ], [ 2.740594, 45.909729 ], [ 2.740502, 45.907406 ], [ 2.742346, 45.90643 ], [ 2.743373, 45.906973 ], [ 2.74564, 45.907514 ], [ 2.748875, 45.909739 ], [ 2.749449, 45.909717 ], [ 2.751517, 45.910811 ], [ 2.756837, 45.910744 ], [ 2.757493, 45.911352 ], [ 2.757525, 45.91217 ], [ 2.756737, 45.914421 ], [ 2.759995, 45.917783 ], [ 2.761423, 45.918507 ], [ 2.766117, 45.919717 ], [ 2.767228, 45.920272 ], [ 2.768866, 45.921893 ], [ 2.769161, 45.925283 ], [ 2.769581, 45.927288 ], [ 2.768873, 45.928626 ], [ 2.768538, 45.93308 ], [ 2.769063, 45.934738 ], [ 2.771063, 45.936592 ], [ 2.771661, 45.938061 ], [ 2.772217, 45.938617 ], [ 2.776304, 45.940723 ], [ 2.777002, 45.941737 ], [ 2.77695, 45.944449 ], [ 2.77659, 45.945129 ], [ 2.77958, 45.948512 ], [ 2.780036, 45.951372 ], [ 2.780828, 45.952228 ], [ 2.78654, 45.953366 ], [ 2.78938, 45.953253 ], [ 2.790544, 45.954007 ], [ 2.79058, 45.954931 ], [ 2.790051, 45.956053 ], [ 2.787469, 45.956667 ], [ 2.78695, 45.957228 ], [ 2.78582, 45.957585 ], [ 2.78584, 45.95808 ], [ 2.785005, 45.958853 ], [ 2.785722, 45.959708 ], [ 2.788243, 45.960506 ], [ 2.789346, 45.961218 ], [ 2.789968, 45.962394 ], [ 2.790314, 45.965142 ], [ 2.789842, 45.966634 ], [ 2.787228, 45.968061 ], [ 2.784528, 45.96843 ], [ 2.783061, 45.970343 ], [ 2.783861, 45.970663 ], [ 2.785242, 45.969172 ], [ 2.787677, 45.969459 ], [ 2.788532, 45.97127 ], [ 2.78918, 45.971969 ], [ 2.792217, 45.972931 ], [ 2.788916, 45.973352 ], [ 2.788873, 45.974424 ], [ 2.794878, 45.975208 ], [ 2.797982, 45.974225 ], [ 2.798883, 45.973389 ], [ 2.798328, 45.972685 ], [ 2.796084, 45.971497 ], [ 2.792658, 45.970754 ], [ 2.791253, 45.97009 ], [ 2.791801, 45.968526 ] ] ] ] } }
]
}
