{
"type": "FeatureCollection",
"name": "rivers",
"crs": { "type": "name", "properties": { "name": "urn:ogc:def:crs:OGC:1.3:CRS84" } },
"features": [
{ "type": "Feature", "properties": { "idx": 3710, "idx_ds": 3506, "pit": false, "strord": 1 }, "geometry": { "type": "LineString", "coordinates": [ [ 2.728333, 45.644167 ], [ 2.72, 45.6525 ], [ 2.728333, 45.6525 ], [ 2.728333, 45.660833 ], [ 2.72, 45.660833 ], [ 2.728333, 45.669167 ] ] } },
{ "type": "Feature", "properties": { "idx": 3728, "idx_ds": 3050, "pit": false, "strord": 1 }, "geometry": { "type": "LineString", "coordinates": [ [ 2.878333, 45.644167 ], [ 2.886667, 45.6525 ], [ 2.886667, 45.660833 ], [ 2.895, 45.660833 ], [ 2.895, 45.669167 ], [ 2.895, 45.6775 ], [ 2.895, 45.685833 ], [ 2.895, 45.694167 ], [ 2.895, 45.7025 ], [ 2.895, 45.710833 ], [ 2.895, 45.719167 ], [ 2.895, 45.7275 ] ] } },
{ "type": "Feature", "properties": { "idx": 3575, "idx_ds": 3506, "pit": false, "strord": 1 }, "geometry": { "type": "LineString", "coordinates": [ [ 2.736667, 45.660833 ], [ 2.728333, 45.669167 ] ] } },
{ "type": "Feature", "properties": { "idx": 3522, "idx_ds": 3116, "pit": false, "strord": 1 }, "geometry": { "type": "LineString", "coordinates": [ [ 2.861667, 45.669167 ], [ 2.87, 45.6775 ], [ 2.87, 45.685833 ], [ 2.87, 45.694167 ], [ 2.861667, 45.694167 ], [ 2.861667, 45.7025 ], [ 2.861667, 45.710833 ], [ 2.87, 45.710833 ], [ 2.87, 45.719167 ], [ 2.878333, 45.719167 ] ] } },
{ "type": "Feature", "properties": { "idx": 3506, "idx_ds": 3236, "pit": false, "strord": 2 }, "geometry": { "type": "LineString", "coordinates": [ [ 2.728333, 45.669167 ], [ 2.72, 45.669167 ], [ 2.72, 45.6775 ], [ 2.72, 45.685833 ], [ 2.728333, 45.685833 ], [ 2.736667, 45.694167 ], [ 2.745, 45.694167 ], [ 2.745, 45.7025 ] ] } },
{ "type": "Feature", "properties": { "idx": 3023, "idx_ds": 2879, "pit": false, "strord": 1 }, "geometry": { "type": "LineString", "coordinates": [ [ 2.67, 45.7275 ], [ 2.661667, 45.7275 ], [ 2.653333, 45.719167 ], [ 2.645, 45.7275 ], [ 2.645, 45.719167 ], [ 2.636667, 45.7275 ], [ 2.636667, 45.719167 ], [ 2.628333, 45.7275 ], [ 2.62, 45.7275 ], [ 2.611667, 45.7275 ], [ 2.611667, 45.735833 ], [ 2.603333, 45.735833 ], [ 2.603333, 45.744167 ] ] } },
{ "type": "Feature", "properties": { "idx": 2318, "idx_ds": 2470, "pit": false, "strord": 1 }, "geometry": { "type": "LineString", "coordinates": [ [ 2.461667, 45.810833 ], [ 2.47, 45.810833 ], [ 2.478333, 45.810833 ], [ 2.486667, 45.8025 ], [ 2.495, 45.810833 ], [ 2.503333, 45.810833 ], [ 2.511667, 45.810833 ], [ 2.52, 45.819167 ], [ 2.528333, 45.819167 ], [ 2.536667, 45.819167 ], [ 2.545, 45.819167 ], [ 2.545, 45.810833 ], [ 2.553333, 45.810833 ], [ 2.561667, 45.810833 ], [ 2.57, 45.810833 ], [ 2.578333, 45.8025 ], [ 2.578333, 45.794167 ], [ 2.586667, 45.794167 ], [ 2.595, 45.794167 ] ] } },
{ "type": "Feature", "properties": { "idx": 1906, "idx_ds": 1984, "pit": false, "strord": 1 }, "geometry": { "type": "LineString", "coordinates": [ [ 2.428333, 45.860833 ], [ 2.436667, 45.860833 ], [ 2.445, 45.860833 ], [ 2.453333, 45.8525 ], [ 2.453333, 45.860833 ], [ 2.461667, 45.860833 ], [ 2.47, 45.860833 ], [ 2.47, 45.8525 ], [ 2.478333, 45.8525 ], [ 2.486667, 45.8525 ], [ 2.495, 45.860833 ], [ 2.503333, 45.8525 ], [ 2.511667, 45.8525 ] ] } },
{ "type": "Feature", "properties": { "idx": 3720, "idx_ds": 3310, "pit": false, "strord": 1 }, "geometry": { "type": "LineString", "coordinates": [ [ 2.811667, 45.644167 ], [ 2.811667, 45.6525 ], [ 2.811667, 45.660833 ], [ 2.811667, 45.669167 ], [ 2.803333, 45.6775 ], [ 2.803333, 45.685833 ], [ 2.803333, 45.694167 ], [ 2.795, 45.694167 ] ] } },
{ "type": "Feature", "properties": { "idx": 2941, "idx_ds": 2599, "pit": false, "strord": 1 }, "geometry": { "type": "LineString", "coordinates": [ [ 2.553333, 45.735833 ], [ 2.561667, 45.735833 ], [ 2.553333, 45.744167 ], [ 2.545, 45.744167 ], [ 2.545, 45.7525 ], [ 2.545, 45.760833 ], [ 2.536667, 45.769167 ], [ 2.536667, 45.7775 ] ] } },
{ "type": "Feature", "properties": { "idx": 2524, "idx_ds": 2596, "pit": false, "strord": 1 }, "geometry": { "type": "LineString", "coordinates": [ [ 2.478333, 45.785833 ], [ 2.486667, 45.785833 ], [ 2.495, 45.7775 ], [ 2.503333, 45.7775 ], [ 2.511667, 45.7775 ] ] } },
{ "type": "Feature", "properties": { "idx": 3718, "idx_ds": 3650, "pit": false, "strord": 1 }, "geometry": { "type": "LineString", "coordinates": [ [ 2.795, 45.644167 ], [ 2.795, 45.6525 ] ] } },
{ "type": "Feature", "properties": { "idx": 3649, "idx_ds": 3650, "pit": false, "strord": 1 }, "geometry": { "type": "LineString", "coordinates": [ [ 2.786667, 45.6525 ], [ 2.795, 45.6525 ] ] } },
{ "type": "Feature", "properties": { "idx": 3255, "idx_ds": 3187, "pit": false, "strord": 1 }, "geometry": { "type": "LineString", "coordinates": [ [ 2.903333, 45.7025 ], [ 2.903333, 45.710833 ] ] } },
{ "type": "Feature", "properties": { "idx": 3188, "idx_ds": 3187, "pit": false, "strord": 1 }, "geometry": { "type": "LineString", "coordinates": [ [ 2.911667, 45.710833 ], [ 2.903333, 45.710833 ] ] } },
{ "type": "Feature", "properties": { "idx": 3650, "idx_ds": 3310, "pit": false, "strord": 2 }, "geometry": { "type": "LineString", "coordinates": [ [ 2.795, 45.6525 ], [ 2.795, 45.660833 ], [ 2.795, 45.669167 ], [ 2.795, 45.6775 ], [ 2.795, 45.685833 ], [ 2.795, 45.694167 ] ] } },
{ "type": "Feature", "properties": { "idx": 3656, "idx_ds": 2838, "pit": false, "strord": 1 }, "geometry": { "type": "LineString", "coordinates": [ [ 2.845, 45.6525 ], [ 2.836667, 45.6525 ], [ 2.836667, 45.660833 ], [ 2.845, 45.669167 ], [ 2.845, 45.6775 ], [ 2.845, 45.685833 ], [ 2.845, 45.694167 ], [ 2.836667, 45.7025 ], [ 2.836667, 45.710833 ], [ 2.836667, 45.719167 ], [ 2.836667, 45.7275 ], [ 2.828333, 45.735833 ], [ 2.82, 45.735833 ], [ 2.82, 45.744167 ], [ 2.828333, 45.7525 ] ] } },
{ "type": "Feature", "properties": { "idx": 3187, "idx_ds": 3051, "pit": false, "strord": 2 }, "geometry": { "type": "LineString", "coordinates": [ [ 2.903333, 45.710833 ], [ 2.903333, 45.719167 ], [ 2.903333, 45.7275 ] ] } },
{ "type": "Feature", "properties": { "idx": 3053, "idx_ds": 3051, "pit": false, "strord": 1 }, "geometry": { "type": "LineString", "coordinates": [ [ 2.92, 45.7275 ], [ 2.911667, 45.7275 ], [ 2.903333, 45.7275 ] ] } },
{ "type": "Feature", "properties": { "idx": 2714, "idx_ds": 2778, "pit": false, "strord": 1 }, "geometry": { "type": "LineString", "coordinates": [ [ 2.928333, 45.769167 ], [ 2.92, 45.769167 ], [ 2.911667, 45.769167 ], [ 2.903333, 45.769167 ], [ 2.895, 45.769167 ], [ 2.895, 45.760833 ] ] } },
{ "type": "Feature", "properties": { "idx": 2664, "idx_ds": 2596, "pit": false, "strord": 1 }, "geometry": { "type": "LineString", "coordinates": [ [ 2.511667, 45.769167 ], [ 2.511667, 45.7775 ] ] } },
{ "type": "Feature", "properties": { "idx": 1706, "idx_ds": 1984, "pit": false, "strord": 1 }, "geometry": { "type": "LineString", "coordinates": [ [ 2.461667, 45.885833 ], [ 2.47, 45.885833 ], [ 2.478333, 45.885833 ], [ 2.486667, 45.8775 ], [ 2.495, 45.8775 ], [ 2.495, 45.869167 ], [ 2.503333, 45.869167 ], [ 2.511667, 45.860833 ], [ 2.511667, 45.8525 ] ] } },
{ "type": "Feature", "properties": { "idx": 2643, "idx_ds": 2843, "pit": false, "strord": 1 }, "geometry": { "type": "LineString", "coordinates": [ [ 2.903333, 45.7775 ], [ 2.895, 45.7775 ], [ 2.886667, 45.7775 ], [ 2.886667, 45.769167 ], [ 2.878333, 45.769167 ], [ 2.87, 45.769167 ], [ 2.87, 45.760833 ], [ 2.87, 45.7525 ] ] } },
{ "type": "Feature", "properties": { "idx": 3373, "idx_ds": 3236, "pit": false, "strord": 1 }, "geometry": { "type": "LineString", "coordinates": [ [ 2.753333, 45.685833 ], [ 2.753333, 45.694167 ], [ 2.745, 45.7025 ] ] } },
{ "type": "Feature", "properties": { "idx": 3097, "idx_ds": 3100, "pit": false, "strord": 1 }, "geometry": { "type": "LineString", "coordinates": [ [ 2.72, 45.719167 ], [ 2.728333, 45.719167 ], [ 2.728333, 45.710833 ], [ 2.736667, 45.710833 ], [ 2.745, 45.719167 ] ] } },
{ "type": "Feature", "properties": { "idx": 2596, "idx_ds": 2599, "pit": false, "strord": 2 }, "geometry": { "type": "LineString", "coordinates": [ [ 2.511667, 45.7775 ], [ 2.52, 45.7775 ], [ 2.528333, 45.7775 ], [ 2.536667, 45.7775 ] ] } },
{ "type": "Feature", "properties": { "idx": 3051, "idx_ds": 3050, "pit": false, "strord": 2 }, "geometry": { "type": "LineString", "coordinates": [ [ 2.903333, 45.7275 ], [ 2.895, 45.7275 ] ] } },
{ "type": "Feature", "properties": { "idx": 3050, "idx_ds": 3116, "pit": false, "strord": 2 }, "geometry": { "type": "LineString", "coordinates": [ [ 2.895, 45.7275 ], [ 2.886667, 45.719167 ], [ 2.878333, 45.719167 ] ] } },
{ "type": "Feature", "properties": { "idx": 2848, "idx_ds": 2778, "pit": false, "strord": 1 }, "geometry": { "type": "LineString", "coordinates": [ [ 2.911667, 45.7525 ], [ 2.903333, 45.7525 ], [ 2.895, 45.760833 ] ] } },
{ "type": "Feature", "properties": { "idx": 2780, "idx_ds": 2778, "pit": false, "strord": 1 }, "geometry": { "type": "LineString", "coordinates": [ [ 2.911667, 45.760833 ], [ 2.903333, 45.760833 ], [ 2.895, 45.760833 ] ] } },
{ "type": "Feature", "properties": { "idx": 3443, "idx_ds": 3036, "pit": false, "strord": 1 }, "geometry": { "type": "LineString", "coordinates": [ [ 2.77, 45.6775 ], [ 2.778333, 45.685833 ], [ 2.778333, 45.694167 ], [ 2.778333, 45.7025 ], [ 2.778333, 45.710833 ], [ 2.778333, 45.719167 ], [ 2.778333, 45.7275 ] ] } },
{ "type": "Feature", "properties": { "idx": 3236, "idx_ds": 3100, "pit": false, "strord": 2 }, "geometry": { "type": "LineString", "coordinates": [ [ 2.745, 45.7025 ], [ 2.745, 45.710833 ], [ 2.745, 45.719167 ] ] } },
{ "type": "Feature", "properties": { "idx": 1503, "idx_ds": 1645, "pit": false, "strord": 1 }, "geometry": { "type": "LineString", "coordinates": [ [ 2.47, 45.910833 ], [ 2.478333, 45.910833 ], [ 2.486667, 45.910833 ], [ 2.495, 45.910833 ], [ 2.495, 45.9025 ], [ 2.503333, 45.9025 ], [ 2.511667, 45.894167 ], [ 2.52, 45.894167 ] ] } },
{ "type": "Feature", "properties": { "idx": 3310, "idx_ds": 3037, "pit": false, "strord": 2 }, "geometry": { "type": "LineString", "coordinates": [ [ 2.795, 45.694167 ], [ 2.795, 45.7025 ], [ 2.803333, 45.710833 ], [ 2.795, 45.710833 ], [ 2.795, 45.719167 ], [ 2.795, 45.7275 ], [ 2.786667, 45.7275 ] ] } },
{ "type": "Feature", "properties": { "idx": 2599, "idx_ds": 2538, "pit": false, "strord": 2 }, "geometry": { "type": "LineString", "coordinates": [ [ 2.536667, 45.7775 ], [ 2.545, 45.7775 ], [ 2.553333, 45.7775 ], [ 2.561667, 45.7775 ], [ 2.561667, 45.785833 ], [ 2.57, 45.7775 ], [ 2.57, 45.785833 ], [ 2.578333, 45.785833 ], [ 2.586667, 45.785833 ], [ 2.595, 45.785833 ] ] } },
{ "type": "Feature", "properties": { "idx": 3116, "idx_ds": 2910, "pit": false, "strord": 2 }, "geometry": { "type": "LineString", "coordinates": [ [ 2.878333, 45.719167 ], [ 2.878333, 45.7275 ], [ 2.87, 45.7275 ], [ 2.87, 45.735833 ], [ 2.861667, 45.735833 ], [ 2.861667, 45.744167 ] ] } },
{ "type": "Feature", "properties": { "idx": 2778, "idx_ds": 2843, "pit": false, "strord": 2 }, "geometry": { "type": "LineString", "coordinates": [ [ 2.895, 45.760833 ], [ 2.886667, 45.760833 ], [ 2.878333, 45.7525 ], [ 2.87, 45.7525 ] ] } },
{ "type": "Feature", "properties": { "idx": 3100, "idx_ds": 3036, "pit": false, "strord": 2 }, "geometry": { "type": "LineString", "coordinates": [ [ 2.745, 45.719167 ], [ 2.753333, 45.719167 ], [ 2.761667, 45.7275 ], [ 2.77, 45.7275 ], [ 2.778333, 45.7275 ] ] } },
{ "type": "Feature", "properties": { "idx": 2815, "idx_ds": 2743, "pit": false, "strord": 1 }, "geometry": { "type": "LineString", "coordinates": [ [ 2.636667, 45.7525 ], [ 2.628333, 45.760833 ], [ 2.62, 45.769167 ], [ 2.611667, 45.769167 ], [ 2.603333, 45.769167 ], [ 2.603333, 45.760833 ] ] } },
{ "type": "Feature", "properties": { "idx": 2693, "idx_ds": 2635, "pit": false, "strord": 1 }, "geometry": { "type": "LineString", "coordinates": [ [ 2.753333, 45.769167 ], [ 2.761667, 45.769167 ], [ 2.77, 45.769167 ], [ 2.778333, 45.769167 ], [ 2.786667, 45.769167 ], [ 2.795, 45.769167 ], [ 2.803333, 45.769167 ], [ 2.803333, 45.760833 ], [ 2.811667, 45.769167 ], [ 2.82, 45.769167 ], [ 2.828333, 45.7775 ], [ 2.836667, 45.7775 ] ] } },
{ "type": "Feature", "properties": { "idx": 1510, "idx_ds": 1509, "pit": false, "strord": 1 }, "geometry": { "type": "LineString", "coordinates": [ [ 2.528333, 45.910833 ], [ 2.52, 45.910833 ] ] } },
{ "type": "Feature", "properties": { "idx": 1440, "idx_ds": 1509, "pit": false, "strord": 1 }, "geometry": { "type": "LineString", "coordinates": [ [ 2.511667, 45.919167 ], [ 2.52, 45.910833 ] ] } },
{ "type": "Feature", "properties": { "idx": 2911, "idx_ds": 2843, "pit": false, "strord": 1 }, "geometry": { "type": "LineString", "coordinates": [ [ 2.87, 45.744167 ], [ 2.87, 45.7525 ] ] } },
{ "type": "Feature", "properties": { "idx": 2880, "idx_ds": 2879, "pit": false, "strord": 1 }, "geometry": { "type": "LineString", "coordinates": [ [ 2.611667, 45.744167 ], [ 2.603333, 45.744167 ] ] } },
{ "type": "Feature", "properties": { "idx": 1509, "idx_ds": 1645, "pit": false, "strord": 2 }, "geometry": { "type": "LineString", "coordinates": [ [ 2.52, 45.910833 ], [ 2.528333, 45.9025 ], [ 2.52, 45.9025 ], [ 2.52, 45.894167 ] ] } },
{ "type": "Feature", "properties": { "idx": 2843, "idx_ds": 2910, "pit": false, "strord": 2 }, "geometry": { "type": "LineString", "coordinates": [ [ 2.87, 45.7525 ], [ 2.861667, 45.7525 ], [ 2.861667, 45.744167 ] ] } },
{ "type": "Feature", "properties": { "idx": 2879, "idx_ds": 2743, "pit": false, "strord": 2 }, "geometry": { "type": "LineString", "coordinates": [ [ 2.603333, 45.744167 ], [ 2.603333, 45.7525 ], [ 2.603333, 45.760833 ] ] } },
{ "type": "Feature", "properties": { "idx": 1984, "idx_ds": 2060, "pit": false, "strord": 2 }, "geometry": { "type": "LineString", "coordinates": [ [ 2.511667, 45.8525 ], [ 2.52, 45.8525 ], [ 2.528333, 45.8525 ], [ 2.536667, 45.8525 ], [ 2.545, 45.8525 ], [ 2.553333, 45.8525 ], [ 2.561667, 45.8525 ], [ 2.57, 45.8525 ], [ 2.578333, 45.844167 ] ] } },
{ "type": "Feature", "properties": { "idx": 1174, "idx_ds": 1380, "pit": false, "strord": 1 }, "geometry": { "type": "LineString", "coordinates": [ [ 2.561667, 45.9525 ], [ 2.561667, 45.944167 ], [ 2.57, 45.944167 ], [ 2.578333, 45.944167 ], [ 2.578333, 45.935833 ], [ 2.578333, 45.9275 ] ] } },
{ "type": "Feature", "properties": { "idx": 3036, "idx_ds": 3037, "pit": false, "strord": 2 }, "geometry": { "type": "LineString", "coordinates": [ [ 2.778333, 45.7275 ], [ 2.786667, 45.7275 ] ] } },
{ "type": "Feature", "properties": { "idx": 2809, "idx_ds": 2674, "pit": false, "strord": 1 }, "geometry": { "type": "LineString", "coordinates": [ [ 2.586667, 45.7525 ], [ 2.595, 45.760833 ], [ 2.595, 45.769167 ] ] } },
{ "type": "Feature", "properties": { "idx": 2910, "idx_ds": 2838, "pit": false, "strord": 3 }, "geometry": { "type": "LineString", "coordinates": [ [ 2.861667, 45.744167 ], [ 2.853333, 45.744167 ], [ 2.845, 45.7525 ], [ 2.836667, 45.7525 ], [ 2.828333, 45.7525 ] ] } },
{ "type": "Feature", "properties": { "idx": 3037, "idx_ds": 2770, "pit": false, "strord": 3 }, "geometry": { "type": "LineString", "coordinates": [ [ 2.786667, 45.7275 ], [ 2.795, 45.735833 ], [ 2.803333, 45.744167 ], [ 2.811667, 45.7525 ], [ 2.82, 45.760833 ], [ 2.828333, 45.760833 ] ] } },
{ "type": "Feature", "properties": { "idx": 2752, "idx_ds": 2407, "pit": false, "strord": 1 }, "geometry": { "type": "LineString", "coordinates": [ [ 2.678333, 45.760833 ], [ 2.67, 45.760833 ], [ 2.661667, 45.769167 ], [ 2.653333, 45.769167 ], [ 2.653333, 45.7775 ], [ 2.645, 45.785833 ], [ 2.645, 45.794167 ], [ 2.636667, 45.8025 ] ] } },
{ "type": "Feature", "properties": { "idx": 2743, "idx_ds": 2674, "pit": false, "strord": 2 }, "geometry": { "type": "LineString", "coordinates": [ [ 2.603333, 45.760833 ], [ 2.595, 45.769167 ] ] } },
{ "type": "Feature", "properties": { "idx": 1645, "idx_ds": 1654, "pit": false, "strord": 2 }, "geometry": { "type": "LineString", "coordinates": [ [ 2.52, 45.894167 ], [ 2.528333, 45.894167 ], [ 2.536667, 45.885833 ], [ 2.545, 45.894167 ], [ 2.553333, 45.885833 ], [ 2.561667, 45.894167 ], [ 2.57, 45.894167 ], [ 2.578333, 45.894167 ], [ 2.586667, 45.894167 ], [ 2.595, 45.894167 ] ] } },
{ "type": "Feature", "properties": { "idx": 2674, "idx_ds": 2538, "pit": false, "strord": 2 }, "geometry": { "type": "LineString", "coordinates": [ [ 2.595, 45.769167 ], [ 2.595, 45.7775 ], [ 2.595, 45.785833 ] ] } },
{ "type": "Feature", "properties": { "idx": 2540, "idx_ds": 2470, "pit": false, "strord": 1 }, "geometry": { "type": "LineString", "coordinates": [ [ 2.611667, 45.785833 ], [ 2.603333, 45.794167 ], [ 2.595, 45.794167 ] ] } },
{ "type": "Feature", "properties": { "idx": 1379, "idx_ds": 1380, "pit": false, "strord": 1 }, "geometry": { "type": "LineString", "coordinates": [ [ 2.57, 45.9275 ], [ 2.578333, 45.9275 ] ] } },
{ "type": "Feature", "properties": { "idx": 2444, "idx_ds": 2235, "pit": false, "strord": 1 }, "geometry": { "type": "LineString", "coordinates": [ [ 2.945, 45.8025 ], [ 2.936667, 45.8025 ], [ 2.936667, 45.810833 ], [ 2.928333, 45.810833 ], [ 2.92, 45.810833 ], [ 2.92, 45.819167 ], [ 2.911667, 45.8275 ], [ 2.903333, 45.8275 ] ] } },
{ "type": "Feature", "properties": { "idx": 2562, "idx_ds": 2567, "pit": false, "strord": 1 }, "geometry": { "type": "LineString", "coordinates": [ [ 2.795, 45.785833 ], [ 2.803333, 45.785833 ], [ 2.811667, 45.785833 ], [ 2.82, 45.785833 ], [ 2.82, 45.794167 ], [ 2.828333, 45.794167 ], [ 2.836667, 45.785833 ] ] } },
{ "type": "Feature", "properties": { "idx": 2410, "idx_ds": 2407, "pit": false, "strord": 1 }, "geometry": { "type": "LineString", "coordinates": [ [ 2.661667, 45.8025 ], [ 2.661667, 45.810833 ], [ 2.653333, 45.810833 ], [ 2.645, 45.810833 ], [ 2.636667, 45.8025 ] ] } },
{ "type": "Feature", "properties": { "idx": 2538, "idx_ds": 2470, "pit": false, "strord": 3 }, "geometry": { "type": "LineString", "coordinates": [ [ 2.595, 45.785833 ], [ 2.595, 45.794167 ] ] } },
{ "type": "Feature", "properties": { "idx": 1380, "idx_ds": 1654, "pit": false, "strord": 2 }, "geometry": { "type": "LineString", "coordinates": [ [ 2.578333, 45.9275 ], [ 2.578333, 45.919167 ], [ 2.586667, 45.919167 ], [ 2.586667, 45.910833 ], [ 2.586667, 45.9025 ], [ 2.595, 45.9025 ], [ 2.595, 45.894167 ] ] } },
{ "type": "Feature", "properties": { "idx": 2838, "idx_ds": 2770, "pit": false, "strord": 3 }, "geometry": { "type": "LineString", "coordinates": [ [ 2.828333, 45.7525 ], [ 2.828333, 45.760833 ] ] } },
{ "type": "Feature", "properties": { "idx": 2507, "idx_ds": 2364, "pit": false, "strord": 1 }, "geometry": { "type": "LineString", "coordinates": [ [ 2.903333, 45.794167 ], [ 2.903333, 45.8025 ], [ 2.895, 45.8025 ], [ 2.886667, 45.8025 ], [ 2.878333, 45.810833 ], [ 2.87, 45.8025 ], [ 2.861667, 45.810833 ], [ 2.853333, 45.810833 ], [ 2.845, 45.810833 ] ] } },
{ "type": "Feature", "properties": { "idx": 2757, "idx_ds": 2072, "pit": false, "strord": 1 }, "geometry": { "type": "LineString", "coordinates": [ [ 2.72, 45.760833 ], [ 2.72, 45.769167 ], [ 2.711667, 45.7775 ], [ 2.711667, 45.785833 ], [ 2.72, 45.785833 ], [ 2.711667, 45.794167 ], [ 2.703333, 45.8025 ], [ 2.695, 45.8025 ], [ 2.695, 45.810833 ], [ 2.686667, 45.810833 ], [ 2.678333, 45.819167 ], [ 2.678333, 45.8275 ], [ 2.678333, 45.835833 ], [ 2.678333, 45.844167 ] ] } },
{ "type": "Feature", "properties": { "idx": 2470, "idx_ds": 2269, "pit": false, "strord": 3 }, "geometry": { "type": "LineString", "coordinates": [ [ 2.595, 45.794167 ], [ 2.603333, 45.8025 ], [ 2.611667, 45.8025 ], [ 2.62, 45.810833 ], [ 2.611667, 45.810833 ], [ 2.611667, 45.819167 ], [ 2.62, 45.819167 ] ] } },
{ "type": "Feature", "properties": { "idx": 2058, "idx_ds": 2060, "pit": false, "strord": 1 }, "geometry": { "type": "LineString", "coordinates": [ [ 2.561667, 45.844167 ], [ 2.57, 45.844167 ], [ 2.578333, 45.844167 ] ] } },
{ "type": "Feature", "properties": { "idx": 2770, "idx_ds": 2635, "pit": false, "strord": 4 }, "geometry": { "type": "LineString", "coordinates": [ [ 2.828333, 45.760833 ], [ 2.836667, 45.769167 ], [ 2.836667, 45.7775 ] ] } },
{ "type": "Feature", "properties": { "idx": 2171, "idx_ds": 2235, "pit": false, "strord": 1 }, "geometry": { "type": "LineString", "coordinates": [ [ 2.936667, 45.835833 ], [ 2.928333, 45.835833 ], [ 2.92, 45.835833 ], [ 2.911667, 45.835833 ], [ 2.903333, 45.8275 ] ] } },
{ "type": "Feature", "properties": { "idx": 2060, "idx_ds": 2132, "pit": false, "strord": 2 }, "geometry": { "type": "LineString", "coordinates": [ [ 2.578333, 45.844167 ], [ 2.586667, 45.844167 ], [ 2.595, 45.844167 ], [ 2.595, 45.835833 ], [ 2.603333, 45.844167 ], [ 2.603333, 45.835833 ], [ 2.611667, 45.835833 ] ] } },
{ "type": "Feature", "properties": { "idx": 2635, "idx_ds": 2567, "pit": false, "strord": 4 }, "geometry": { "type": "LineString", "coordinates": [ [ 2.836667, 45.7775 ], [ 2.828333, 45.785833 ], [ 2.836667, 45.785833 ] ] } },
{ "type": "Feature", "properties": { "idx": 2407, "idx_ds": 2269, "pit": false, "strord": 2 }, "geometry": { "type": "LineString", "coordinates": [ [ 2.636667, 45.8025 ], [ 2.628333, 45.810833 ], [ 2.628333, 45.819167 ], [ 2.62, 45.819167 ] ] } },
{ "type": "Feature", "properties": { "idx": 2502, "idx_ds": 2364, "pit": false, "strord": 1 }, "geometry": { "type": "LineString", "coordinates": [ [ 2.861667, 45.794167 ], [ 2.853333, 45.794167 ], [ 2.845, 45.8025 ], [ 2.845, 45.810833 ] ] } },
{ "type": "Feature", "properties": { "idx": 2567, "idx_ds": 2364, "pit": false, "strord": 4 }, "geometry": { "type": "LineString", "coordinates": [ [ 2.836667, 45.785833 ], [ 2.836667, 45.794167 ], [ 2.836667, 45.8025 ], [ 2.845, 45.810833 ] ] } },
{ "type": "Feature", "properties": { "idx": 1654, "idx_ds": 1868, "pit": false, "strord": 3 }, "geometry": { "type": "LineString", "coordinates": [ [ 2.595, 45.894167 ], [ 2.603333, 45.894167 ], [ 2.611667, 45.894167 ], [ 2.62, 45.894167 ], [ 2.628333, 45.894167 ], [ 2.628333, 45.885833 ], [ 2.636667, 45.885833 ], [ 2.636667, 45.8775 ], [ 2.636667, 45.869167 ], [ 2.645, 45.869167 ], [ 2.653333, 45.869167 ], [ 2.661667, 45.869167 ], [ 2.67, 45.869167 ], [ 2.678333, 45.869167 ] ] } },
{ "type": "Feature", "properties": { "idx": 2235, "idx_ds": 2163, "pit": false, "strord": 2 }, "geometry": { "type": "LineString", "coordinates": [ [ 2.903333, 45.8275 ], [ 2.895, 45.835833 ], [ 2.886667, 45.835833 ], [ 2.878333, 45.835833 ], [ 2.87, 45.835833 ] ] } },
{ "type": "Feature", "properties": { "idx": 2269, "idx_ds": 2132, "pit": false, "strord": 3 }, "geometry": { "type": "LineString", "coordinates": [ [ 2.62, 45.819167 ], [ 2.62, 45.8275 ], [ 2.611667, 45.835833 ] ] } },
{ "type": "Feature", "properties": { "idx": 1043, "idx_ds": 1326, "pit": false, "strord": 1 }, "geometry": { "type": "LineString", "coordinates": [ [ 2.603333, 45.969167 ], [ 2.611667, 45.969167 ], [ 2.62, 45.969167 ], [ 2.62, 45.960833 ], [ 2.628333, 45.960833 ], [ 2.636667, 45.9525 ], [ 2.645, 45.9525 ], [ 2.653333, 45.9525 ], [ 2.653333, 45.944167 ], [ 2.661667, 45.944167 ], [ 2.67, 45.944167 ], [ 2.678333, 45.935833 ], [ 2.686667, 45.935833 ], [ 2.695, 45.935833 ] ] } },
{ "type": "Feature", "properties": { "idx": 2301, "idx_ds": 2163, "pit": false, "strord": 1 }, "geometry": { "type": "LineString", "coordinates": [ [ 2.886667, 45.819167 ], [ 2.878333, 45.819167 ], [ 2.87, 45.8275 ], [ 2.87, 45.835833 ] ] } },
{ "type": "Feature", "properties": { "idx": 2364, "idx_ds": 2296, "pit": false, "strord": 4 }, "geometry": { "type": "LineString", "coordinates": [ [ 2.845, 45.810833 ], [ 2.845, 45.819167 ] ] } },
{ "type": "Feature", "properties": { "idx": 2295, "idx_ds": 2296, "pit": false, "strord": 1 }, "geometry": { "type": "LineString", "coordinates": [ [ 2.836667, 45.819167 ], [ 2.845, 45.819167 ] ] } },
{ "type": "Feature", "properties": { "idx": 2132, "idx_ds": 1934, "pit": false, "strord": 3 }, "geometry": { "type": "LineString", "coordinates": [ [ 2.611667, 45.835833 ], [ 2.611667, 45.844167 ], [ 2.62, 45.844167 ], [ 2.628333, 45.844167 ], [ 2.628333, 45.8525 ], [ 2.636667, 45.8525 ], [ 2.645, 45.8525 ], [ 2.653333, 45.860833 ], [ 2.661667, 45.860833 ] ] } },
{ "type": "Feature", "properties": { "idx": 2296, "idx_ds": 2161, "pit": false, "strord": 4 }, "geometry": { "type": "LineString", "coordinates": [ [ 2.845, 45.819167 ], [ 2.845, 45.8275 ], [ 2.845, 45.835833 ], [ 2.853333, 45.835833 ] ] } },
{ "type": "Feature", "properties": { "idx": 2211, "idx_ds": 2072, "pit": false, "strord": 1 }, "geometry": { "type": "LineString", "coordinates": [ [ 2.703333, 45.8275 ], [ 2.703333, 45.835833 ], [ 2.695, 45.835833 ], [ 2.686667, 45.844167 ], [ 2.678333, 45.844167 ] ] } },
{ "type": "Feature", "properties": { "idx": 2163, "idx_ds": 2161, "pit": false, "strord": 2 }, "geometry": { "type": "LineString", "coordinates": [ [ 2.87, 45.835833 ], [ 2.861667, 45.835833 ], [ 2.853333, 45.835833 ] ] } },
{ "type": "Feature", "properties": { "idx": 912, "idx_ds": 983, "pit": false, "strord": 1 }, "geometry": { "type": "LineString", "coordinates": [ [ 2.645, 45.985833 ], [ 2.653333, 45.985833 ], [ 2.661667, 45.985833 ], [ 2.661667, 45.9775 ], [ 2.67, 45.9775 ] ] } },
{ "type": "Feature", "properties": { "idx": 1962, "idx_ds": 2026, "pit": false, "strord": 1 }, "geometry": { "type": "LineString", "coordinates": [ [ 2.895, 45.860833 ], [ 2.886667, 45.860833 ], [ 2.878333, 45.860833 ], [ 2.87, 45.8525 ], [ 2.861667, 45.8525 ] ] } },
{ "type": "Feature", "properties": { "idx": 2161, "idx_ds": 2093, "pit": false, "strord": 4 }, "geometry": { "type": "LineString", "coordinates": [ [ 2.853333, 45.835833 ], [ 2.845, 45.844167 ], [ 2.853333, 45.844167 ] ] } },
{ "type": "Feature", "properties": { "idx": 1691, "idx_ds": 1622, "pit": false, "strord": 1 }, "geometry": { "type": "LineString", "coordinates": [ [ 2.903333, 45.894167 ], [ 2.895, 45.894167 ], [ 2.895, 45.9025 ] ] } },
{ "type": "Feature", "properties": { "idx": 1317, "idx_ds": 1529, "pit": false, "strord": 1 }, "geometry": { "type": "LineString", "coordinates": [ [ 2.62, 45.935833 ], [ 2.62, 45.9275 ], [ 2.628333, 45.9275 ], [ 2.636667, 45.919167 ], [ 2.645, 45.919167 ], [ 2.653333, 45.919167 ], [ 2.661667, 45.910833 ], [ 2.67, 45.919167 ], [ 2.678333, 45.919167 ], [ 2.686667, 45.910833 ] ] } },
{ "type": "Feature", "properties": { "idx": 916, "idx_ds": 983, "pit": false, "strord": 1 }, "geometry": { "type": "LineString", "coordinates": [ [ 2.678333, 45.985833 ], [ 2.678333, 45.9775 ], [ 2.67, 45.9775 ] ] } },
{ "type": "Feature", "properties": { "idx": 2094, "idx_ds": 2093, "pit": false, "strord": 1 }, "geometry": { "type": "LineString", "coordinates": [ [ 2.861667, 45.844167 ], [ 2.853333, 45.844167 ] ] } },
{ "type": "Feature", "properties": { "idx": 1555, "idx_ds": 1622, "pit": false, "strord": 1 }, "geometry": { "type": "LineString", "coordinates": [ [ 2.903333, 45.910833 ], [ 2.895, 45.9025 ] ] } },
{ "type": "Feature", "properties": { "idx": 2287, "idx_ds": 2148, "pit": false, "strord": 1 }, "geometry": { "type": "LineString", "coordinates": [ [ 2.77, 45.819167 ], [ 2.761667, 45.819167 ], [ 2.761667, 45.8275 ], [ 2.753333, 45.8275 ], [ 2.745, 45.835833 ] ] } },
{ "type": "Feature", "properties": { "idx": 2072, "idx_ds": 1934, "pit": false, "strord": 2 }, "geometry": { "type": "LineString", "coordinates": [ [ 2.678333, 45.844167 ], [ 2.67, 45.844167 ], [ 2.67, 45.8525 ], [ 2.661667, 45.860833 ] ] } },
{ "type": "Feature", "properties": { "idx": 2136, "idx_ds": 1934, "pit": false, "strord": 1 }, "geometry": { "type": "LineString", "coordinates": [ [ 2.645, 45.835833 ], [ 2.653333, 45.844167 ], [ 2.653333, 45.8525 ], [ 2.661667, 45.860833 ] ] } },
{ "type": "Feature", "properties": { "idx": 2093, "idx_ds": 2026, "pit": false, "strord": 4 }, "geometry": { "type": "LineString", "coordinates": [ [ 2.853333, 45.844167 ], [ 2.861667, 45.8525 ] ] } },
{ "type": "Feature", "properties": { "idx": 1825, "idx_ds": 1887, "pit": false, "strord": 1 }, "geometry": { "type": "LineString", "coordinates": [ [ 2.886667, 45.8775 ], [ 2.878333, 45.8775 ], [ 2.87, 45.8775 ], [ 2.861667, 45.885833 ], [ 2.853333, 45.885833 ], [ 2.845, 45.885833 ], [ 2.836667, 45.8775 ], [ 2.836667, 45.869167 ] ] } },
{ "type": "Feature", "properties": { "idx": 1622, "idx_ds": 1683, "pit": false, "strord": 2 }, "geometry": { "type": "LineString", "coordinates": [ [ 2.895, 45.9025 ], [ 2.886667, 45.910833 ], [ 2.878333, 45.910833 ], [ 2.87, 45.910833 ], [ 2.861667, 45.910833 ], [ 2.853333, 45.910833 ], [ 2.845, 45.9025 ], [ 2.836667, 45.9025 ], [ 2.836667, 45.894167 ] ] } },
{ "type": "Feature", "properties": { "idx": 2352, "idx_ds": 2148, "pit": false, "strord": 1 }, "geometry": { "type": "LineString", "coordinates": [ [ 2.745, 45.810833 ], [ 2.745, 45.819167 ], [ 2.745, 45.8275 ], [ 2.745, 45.835833 ] ] } },
{ "type": "Feature", "properties": { "idx": 983, "idx_ds": 1326, "pit": false, "strord": 2 }, "geometry": { "type": "LineString", "coordinates": [ [ 2.67, 45.9775 ], [ 2.678333, 45.969167 ], [ 2.678333, 45.960833 ], [ 2.686667, 45.9525 ], [ 2.686667, 45.944167 ], [ 2.695, 45.935833 ] ] } },
{ "type": "Feature", "properties": { "idx": 2026, "idx_ds": 1887, "pit": false, "strord": 4 }, "geometry": { "type": "LineString", "coordinates": [ [ 2.861667, 45.8525 ], [ 2.861667, 45.860833 ], [ 2.853333, 45.860833 ], [ 2.853333, 45.869167 ], [ 2.845, 45.869167 ], [ 2.836667, 45.860833 ], [ 2.836667, 45.869167 ] ] } },
{ "type": "Feature", "properties": { "idx": 1126, "idx_ds": 1395, "pit": false, "strord": 1 }, "geometry": { "type": "LineString", "coordinates": [ [ 2.728333, 45.960833 ], [ 2.72, 45.9525 ], [ 2.72, 45.944167 ], [ 2.72, 45.935833 ], [ 2.711667, 45.935833 ], [ 2.711667, 45.9275 ], [ 2.703333, 45.9275 ] ] } },
{ "type": "Feature", "properties": { "idx": 1934, "idx_ds": 1868, "pit": false, "strord": 3 }, "geometry": { "type": "LineString", "coordinates": [ [ 2.661667, 45.860833 ], [ 2.67, 45.860833 ], [ 2.678333, 45.869167 ] ] } },
{ "type": "Feature", "properties": { "idx": 2148, "idx_ds": 1876, "pit": false, "strord": 2 }, "geometry": { "type": "LineString", "coordinates": [ [ 2.745, 45.835833 ], [ 2.753333, 45.844167 ], [ 2.753333, 45.8525 ], [ 2.745, 45.860833 ], [ 2.745, 45.869167 ] ] } },
{ "type": "Feature", "properties": { "idx": 1322, "idx_ds": 1529, "pit": false, "strord": 1 }, "geometry": { "type": "LineString", "coordinates": [ [ 2.661667, 45.935833 ], [ 2.67, 45.935833 ], [ 2.678333, 45.9275 ], [ 2.686667, 45.919167 ], [ 2.686667, 45.910833 ] ] } },
{ "type": "Feature", "properties": { "idx": 2222, "idx_ds": 1880, "pit": false, "strord": 1 }, "geometry": { "type": "LineString", "coordinates": [ [ 2.795, 45.8275 ], [ 2.786667, 45.835833 ], [ 2.786667, 45.844167 ], [ 2.786667, 45.8525 ], [ 2.786667, 45.860833 ], [ 2.778333, 45.869167 ] ] } },
{ "type": "Feature", "properties": { "idx": 1941, "idx_ds": 1876, "pit": false, "strord": 1 }, "geometry": { "type": "LineString", "coordinates": [ [ 2.72, 45.860833 ], [ 2.728333, 45.860833 ], [ 2.736667, 45.869167 ], [ 2.745, 45.869167 ] ] } },
{ "type": "Feature", "properties": { "idx": 1868, "idx_ds": 1601, "pit": false, "strord": 4 }, "geometry": { "type": "LineString", "coordinates": [ [ 2.678333, 45.869167 ], [ 2.686667, 45.869167 ], [ 2.686667, 45.8775 ], [ 2.695, 45.8775 ], [ 2.703333, 45.885833 ], [ 2.711667, 45.885833 ], [ 2.711667, 45.894167 ], [ 2.72, 45.894167 ], [ 2.72, 45.9025 ] ] } },
{ "type": "Feature", "properties": { "idx": 1618, "idx_ds": 1683, "pit": false, "strord": 1 }, "geometry": { "type": "LineString", "coordinates": [ [ 2.861667, 45.9025 ], [ 2.853333, 45.9025 ], [ 2.845, 45.894167 ], [ 2.836667, 45.894167 ] ] } },
{ "type": "Feature", "properties": { "idx": 1596, "idx_ds": 1530, "pit": false, "strord": 1 }, "geometry": { "type": "LineString", "coordinates": [ [ 2.678333, 45.9025 ], [ 2.686667, 45.9025 ], [ 2.695, 45.9025 ], [ 2.695, 45.910833 ] ] } },
{ "type": "Feature", "properties": { "idx": 1326, "idx_ds": 1395, "pit": false, "strord": 2 }, "geometry": { "type": "LineString", "coordinates": [ [ 2.695, 45.935833 ], [ 2.695, 45.9275 ], [ 2.703333, 45.9275 ] ] } },
{ "type": "Feature", "properties": { "idx": 2020, "idx_ds": 1885, "pit": false, "strord": 1 }, "geometry": { "type": "LineString", "coordinates": [ [ 2.811667, 45.8525 ], [ 2.811667, 45.860833 ], [ 2.82, 45.860833 ], [ 2.82, 45.869167 ] ] } },
{ "type": "Feature", "properties": { "idx": 1887, "idx_ds": 1885, "pit": false, "strord": 4 }, "geometry": { "type": "LineString", "coordinates": [ [ 2.836667, 45.869167 ], [ 2.828333, 45.869167 ], [ 2.82, 45.869167 ] ] } },
{ "type": "Feature", "properties": { "idx": 2016, "idx_ds": 1880, "pit": false, "strord": 1 }, "geometry": { "type": "LineString", "coordinates": [ [ 2.778333, 45.8525 ], [ 2.778333, 45.860833 ], [ 2.778333, 45.869167 ] ] } },
{ "type": "Feature", "properties": { "idx": 1876, "idx_ds": 1602, "pit": false, "strord": 2 }, "geometry": { "type": "LineString", "coordinates": [ [ 2.745, 45.869167 ], [ 2.736667, 45.8775 ], [ 2.736667, 45.885833 ], [ 2.728333, 45.885833 ], [ 2.736667, 45.894167 ], [ 2.728333, 45.894167 ], [ 2.728333, 45.9025 ] ] } },
{ "type": "Feature", "properties": { "idx": 1529, "idx_ds": 1530, "pit": false, "strord": 2 }, "geometry": { "type": "LineString", "coordinates": [ [ 2.686667, 45.910833 ], [ 2.695, 45.910833 ] ] } },
{ "type": "Feature", "properties": { "idx": 1395, "idx_ds": 1531, "pit": false, "strord": 2 }, "geometry": { "type": "LineString", "coordinates": [ [ 2.703333, 45.9275 ], [ 2.703333, 45.919167 ], [ 2.703333, 45.910833 ] ] } },
{ "type": "Feature", "properties": { "idx": 1683, "idx_ds": 1817, "pit": false, "strord": 2 }, "geometry": { "type": "LineString", "coordinates": [ [ 2.836667, 45.894167 ], [ 2.828333, 45.885833 ], [ 2.82, 45.8775 ] ] } },
{ "type": "Feature", "properties": { "idx": 1530, "idx_ds": 1531, "pit": false, "strord": 2 }, "geometry": { "type": "LineString", "coordinates": [ [ 2.695, 45.910833 ], [ 2.703333, 45.910833 ] ] } },
{ "type": "Feature", "properties": { "idx": 1885, "idx_ds": 1817, "pit": false, "strord": 4 }, "geometry": { "type": "LineString", "coordinates": [ [ 2.82, 45.869167 ], [ 2.82, 45.8775 ] ] } },
{ "type": "Feature", "properties": { "idx": 1880, "idx_ds": 1747, "pit": false, "strord": 2 }, "geometry": { "type": "LineString", "coordinates": [ [ 2.778333, 45.869167 ], [ 2.786667, 45.8775 ], [ 2.786667, 45.885833 ], [ 2.795, 45.885833 ], [ 2.803333, 45.885833 ] ] } },
{ "type": "Feature", "properties": { "idx": 1531, "idx_ds": 1601, "pit": false, "strord": 3 }, "geometry": { "type": "LineString", "coordinates": [ [ 2.703333, 45.910833 ], [ 2.703333, 45.9025 ], [ 2.711667, 45.9025 ], [ 2.72, 45.9025 ] ] } },
{ "type": "Feature", "properties": { "idx": 1817, "idx_ds": 1747, "pit": false, "strord": 4 }, "geometry": { "type": "LineString", "coordinates": [ [ 2.82, 45.8775 ], [ 2.811667, 45.8775 ], [ 2.811667, 45.885833 ], [ 2.803333, 45.885833 ] ] } },
{ "type": "Feature", "properties": { "idx": 1601, "idx_ds": 1602, "pit": false, "strord": 4 }, "geometry": { "type": "LineString", "coordinates": [ [ 2.72, 45.9025 ], [ 2.728333, 45.9025 ] ] } },
{ "type": "Feature", "properties": { "idx": 1747, "idx_ds": 1542, "pit": false, "strord": 4 }, "geometry": { "type": "LineString", "coordinates": [ [ 2.803333, 45.885833 ], [ 2.803333, 45.894167 ], [ 2.795, 45.9025 ], [ 2.803333, 45.9025 ], [ 2.795, 45.910833 ] ] } },
{ "type": "Feature", "properties": { "idx": 1602, "idx_ds": 1537, "pit": false, "strord": 4 }, "geometry": { "type": "LineString", "coordinates": [ [ 2.728333, 45.9025 ], [ 2.736667, 45.910833 ], [ 2.745, 45.910833 ], [ 2.745, 45.9025 ], [ 2.753333, 45.910833 ] ] } },
{ "type": "Feature", "properties": { "idx": 1543, "idx_ds": 1542, "pit": false, "strord": 1 }, "geometry": { "type": "LineString", "coordinates": [ [ 2.803333, 45.910833 ], [ 2.795, 45.910833 ] ] } },
{ "type": "Feature", "properties": { "idx": 1606, "idx_ds": 1537, "pit": false, "strord": 1 }, "geometry": { "type": "LineString", "coordinates": [ [ 2.761667, 45.9025 ], [ 2.753333, 45.910833 ] ] } },
{ "type": "Feature", "properties": { "idx": 1542, "idx_ds": 1403, "pit": false, "strord": 4 }, "geometry": { "type": "LineString", "coordinates": [ [ 2.795, 45.910833 ], [ 2.795, 45.919167 ], [ 2.786667, 45.9275 ], [ 2.786667, 45.919167 ], [ 2.778333, 45.9275 ], [ 2.77, 45.9275 ] ] } },
{ "type": "Feature", "properties": { "idx": 783, "idx_ds": 855, "pit": false, "strord": 1 }, "geometry": { "type": "LineString", "coordinates": [ [ 2.703333, 46.0025 ], [ 2.711667, 45.994167 ], [ 2.72, 45.994167 ], [ 2.728333, 45.994167 ], [ 2.736667, 45.994167 ] ] } },
{ "type": "Feature", "properties": { "idx": 512, "idx_ds": 516, "pit": false, "strord": 1 }, "geometry": { "type": "LineString", "coordinates": [ [ 2.711667, 46.035833 ], [ 2.72, 46.0275 ], [ 2.728333, 46.035833 ], [ 2.736667, 46.035833 ], [ 2.745, 46.035833 ] ] } },
{ "type": "Feature", "properties": { "idx": 1537, "idx_ds": 1403, "pit": false, "strord": 4 }, "geometry": { "type": "LineString", "coordinates": [ [ 2.753333, 45.910833 ], [ 2.761667, 45.910833 ], [ 2.761667, 45.919167 ], [ 2.77, 45.919167 ], [ 2.77, 45.9275 ] ] } },
{ "type": "Feature", "properties": { "idx": 247, "idx_ds": 317, "pit": false, "strord": 1 }, "geometry": { "type": "LineString", "coordinates": [ [ 2.77, 46.069167 ], [ 2.778333, 46.060833 ], [ 2.786667, 46.060833 ] ] } },
{ "type": "Feature", "properties": { "idx": 1333, "idx_ds": 1403, "pit": false, "strord": 1 }, "geometry": { "type": "LineString", "coordinates": [ [ 2.753333, 45.935833 ], [ 2.761667, 45.935833 ], [ 2.761667, 45.9275 ], [ 2.77, 45.9275 ] ] } },
{ "type": "Feature", "properties": { "idx": 378, "idx_ds": 516, "pit": false, "strord": 1 }, "geometry": { "type": "LineString", "coordinates": [ [ 2.728333, 46.0525 ], [ 2.736667, 46.044167 ], [ 2.745, 46.035833 ] ] } },
{ "type": "Feature", "properties": { "idx": 450, "idx_ds": 453, "pit": false, "strord": 1 }, "geometry": { "type": "LineString", "coordinates": [ [ 2.761667, 46.044167 ], [ 2.77, 46.044167 ], [ 2.778333, 46.044167 ], [ 2.786667, 46.044167 ] ] } },
{ "type": "Feature", "properties": { "idx": 318, "idx_ds": 317, "pit": false, "strord": 1 }, "geometry": { "type": "LineString", "coordinates": [ [ 2.795, 46.060833 ], [ 2.786667, 46.060833 ] ] } },
{ "type": "Feature", "properties": { "idx": 990, "idx_ds": 923, "pit": false, "strord": 1 }, "geometry": { "type": "LineString", "coordinates": [ [ 2.728333, 45.9775 ], [ 2.736667, 45.9775 ], [ 2.736667, 45.985833 ] ] } },
{ "type": "Feature", "properties": { "idx": 786, "idx_ds": 855, "pit": false, "strord": 1 }, "geometry": { "type": "LineString", "coordinates": [ [ 2.728333, 46.0025 ], [ 2.736667, 45.994167 ] ] } },
{ "type": "Feature", "properties": { "idx": 317, "idx_ds": 453, "pit": false, "strord": 2 }, "geometry": { "type": "LineString", "coordinates": [ [ 2.786667, 46.060833 ], [ 2.786667, 46.0525 ], [ 2.786667, 46.044167 ] ] } },
{ "type": "Feature", "properties": { "idx": 855, "idx_ds": 923, "pit": false, "strord": 2 }, "geometry": { "type": "LineString", "coordinates": [ [ 2.736667, 45.994167 ], [ 2.736667, 45.985833 ] ] } },
{ "type": "Feature", "properties": { "idx": 516, "idx_ds": 860, "pit": false, "strord": 2 }, "geometry": { "type": "LineString", "coordinates": [ [ 2.745, 46.035833 ], [ 2.745, 46.0275 ], [ 2.753333, 46.019167 ], [ 2.761667, 46.019167 ], [ 2.761667, 46.010833 ], [ 2.77, 46.0025 ], [ 2.77, 45.994167 ], [ 2.778333, 45.994167 ] ] } },
{ "type": "Feature", "properties": { "idx": 454, "idx_ds": 520, "pit": false, "strord": 1 }, "geometry": { "type": "LineString", "coordinates": [ [ 2.795, 46.044167 ], [ 2.786667, 46.035833 ], [ 2.778333, 46.035833 ] ] } },
{ "type": "Feature", "properties": { "idx": 1403, "idx_ds": 1065, "pit": false, "strord": 5 }, "geometry": { "type": "LineString", "coordinates": [ [ 2.77, 45.9275 ], [ 2.77, 45.935833 ], [ 2.778333, 45.935833 ], [ 2.778333, 45.944167 ], [ 2.778333, 45.9525 ], [ 2.786667, 45.9525 ], [ 2.795, 45.9525 ], [ 2.786667, 45.960833 ], [ 2.786667, 45.969167 ] ] } },
{ "type": "Feature", "properties": { "idx": 923, "idx_ds": 1065, "pit": false, "strord": 2 }, "geometry": { "type": "LineString", "coordinates": [ [ 2.736667, 45.985833 ], [ 2.745, 45.985833 ], [ 2.753333, 45.985833 ], [ 2.753333, 45.9775 ], [ 2.761667, 45.9775 ], [ 2.761667, 45.969167 ], [ 2.77, 45.969167 ], [ 2.778333, 45.969167 ], [ 2.786667, 45.969167 ] ] } },
{ "type": "Feature", "properties": { "idx": 453, "idx_ds": 520, "pit": false, "strord": 2 }, "geometry": { "type": "LineString", "coordinates": [ [ 2.786667, 46.044167 ], [ 2.778333, 46.035833 ] ] } },
{ "type": "Feature", "properties": { "idx": 520, "idx_ds": 860, "pit": false, "strord": 2 }, "geometry": { "type": "LineString", "coordinates": [ [ 2.778333, 46.035833 ], [ 2.778333, 46.0275 ], [ 2.778333, 46.019167 ], [ 2.778333, 46.010833 ], [ 2.778333, 46.0025 ], [ 2.778333, 45.994167 ] ] } },
{ "type": "Feature", "properties": { "idx": 1412, "idx_ds": 1136, "pit": false, "strord": 1 }, "geometry": { "type": "LineString", "coordinates": [ [ 2.845, 45.9275 ], [ 2.836667, 45.9275 ], [ 2.836667, 45.935833 ], [ 2.828333, 45.935833 ], [ 2.82, 45.935833 ], [ 2.811667, 45.935833 ], [ 2.811667, 45.944167 ], [ 2.811667, 45.9525 ], [ 2.811667, 45.960833 ] ] } },
{ "type": "Feature", "properties": { "idx": 860, "idx_ds": 998, "pit": false, "strord": 3 }, "geometry": { "type": "LineString", "coordinates": [ [ 2.778333, 45.994167 ], [ 2.778333, 45.985833 ], [ 2.778333, 45.9775 ], [ 2.786667, 45.9775 ], [ 2.795, 45.9775 ] ] } },
{ "type": "Feature", "properties": { "idx": 1065, "idx_ds": 998, "pit": false, "strord": 5 }, "geometry": { "type": "LineString", "coordinates": [ [ 2.786667, 45.969167 ], [ 2.795, 45.969167 ], [ 2.795, 45.9775 ] ] } },
{ "type": "Feature", "properties": { "idx": 1205, "idx_ds": 1136, "pit": false, "strord": 1 }, "geometry": { "type": "LineString", "coordinates": [ [ 2.82, 45.9525 ], [ 2.811667, 45.960833 ] ] } },
{ "type": "Feature", "properties": { "idx": 998, "idx_ds": 1068, "pit": false, "strord": 5 }, "geometry": { "type": "LineString", "coordinates": [ [ 2.795, 45.9775 ], [ 2.803333, 45.969167 ], [ 2.811667, 45.969167 ] ] } },
{ "type": "Feature", "properties": { "idx": 1136, "idx_ds": 1068, "pit": false, "strord": 2 }, "geometry": { "type": "LineString", "coordinates": [ [ 2.811667, 45.960833 ], [ 2.811667, 45.969167 ] ] } },
{ "type": "Feature", "properties": { "idx": 1068, "idx_ds": 1068, "pit": true, "strord": 5 }, "geometry": { "type": "LineString", "coordinates": [ ] } }
]
}
