{
"type": "FeatureCollection",
"name": "basins",
"crs": { "type": "name", "properties": { "name": "urn:ogc:def:crs:OGC:1.3:CRS84" } },
"features": [
{ "type": "Feature", "properties": { "value": 1.0 }, "geometry": { "type": "Polygon", "coordinates": [ [ [ 2.774167, 46.098333 ], [ 2.774167, 46.09 ], [ 2.7825, 46.09 ], [ 2.7825, 46.081667 ], [ 2.799167, 46.081667 ], [ 2.799167, 46.09 ], [ 2.815833, 46.09 ], [ 2.815833, 46.065 ], [ 2.8075, 46.065 ], [ 2.8075, 46.056667 ], [ 2.815833, 46.056667 ], [ 2.815833, 46.048333 ], [ 2.824167, 46.048333 ], [ 2.824167, 46.04 ], [ 2.815833, 46.04 ], [ 2.815833, 46.031667 ], [ 2.8075, 46.031667 ], [ 2.8075, 46.015 ], [ 2.799167, 46.015 ], [ 2.799167, 46.006667 ], [ 2.790833, 46.006667 ], [ 2.790833, 45.981667 ], [ 2.799167, 45.981667 ], [ 2.799167, 45.973333 ], [ 2.8325, 45.973333 ], [ 2.8325, 45.956667 ], [ 2.849167, 45.956667 ], [ 2.849167, 45.948333 ], [ 2.865833, 45.948333 ], [ 2.865833, 45.923333 ], [ 2.9325, 45.923333 ], [ 2.9325, 45.898333 ], [ 2.940833, 45.898333 ], [ 2.940833, 45.89 ], [ 2.9325, 45.89 ], [ 2.9325, 45.881667 ], [ 2.924167, 45.881667 ], [ 2.924167, 45.856667 ], [ 2.9325, 45.856667 ], [ 2.9325, 45.848333 ], [ 2.949167, 45.848333 ], [ 2.949167, 45.856667 ], [ 2.965833, 45.856667 ], [ 2.965833, 45.84 ], [ 2.9575, 45.84 ], [ 2.9575, 45.823333 ], [ 2.965833, 45.823333 ], [ 2.965833, 45.798333 ], [ 2.974167, 45.798333 ], [ 2.974167, 45.79 ], [ 2.965833, 45.79 ], [ 2.965833, 45.773333 ], [ 2.9575, 45.773333 ], [ 2.9575, 45.756667 ], [ 2.949167, 45.756667 ], [ 2.949167, 45.723333 ], [ 2.9575, 45.723333 ], [ 2.9575, 45.715 ], [ 2.949167, 45.715 ], [ 2.949167, 45.706667 ], [ 2.9325, 45.706667 ], [ 2.9325, 45.69 ], [ 2.924167, 45.69 ], [ 2.924167, 45.681667 ], [ 2.915833, 45.681667 ], [ 2.915833, 45.665 ], [ 2.9075, 45.665 ], [ 2.9075, 45.656667 ], [ 2.899167, 45.656667 ], [ 2.899167, 45.648333 ], [ 2.890833, 45.648333 ], [ 2.890833, 45.64 ], [ 2.8825, 45.64 ], [ 2.8825, 45.631667 ], [ 2.874167, 45.631667 ], [ 2.874167, 45.623333 ], [ 2.865833, 45.623333 ], [ 2.865833, 45.615 ], [ 2.849167, 45.615 ], [ 2.849167, 45.623333 ], [ 2.790833, 45.623333 ], [ 2.790833, 45.615 ], [ 2.765833, 45.615 ], [ 2.765833, 45.606667 ], [ 2.7575, 45.606667 ], [ 2.7575, 45.615 ], [ 2.724167, 45.615 ], [ 2.724167, 45.623333 ], [ 2.715833, 45.623333 ], [ 2.715833, 45.631667 ], [ 2.724167, 45.631667 ], [ 2.724167, 45.64 ], [ 2.7075, 45.64 ], [ 2.7075, 45.648333 ], [ 2.699167, 45.648333 ], [ 2.699167, 45.656667 ], [ 2.690833, 45.656667 ], [ 2.690833, 45.665 ], [ 2.699167, 45.665 ], [ 2.699167, 45.698333 ], [ 2.690833, 45.698333 ], [ 2.690833, 45.706667 ], [ 2.699167, 45.706667 ], [ 2.699167, 45.715 ], [ 2.690833, 45.715 ], [ 2.690833, 45.723333 ], [ 2.6825, 45.723333 ], [ 2.6825, 45.715 ], [ 2.674167, 45.715 ], [ 2.674167, 45.706667 ], [ 2.6575, 45.706667 ], [ 2.6575, 45.715 ], [ 2.649167, 45.715 ], [ 2.649167, 45.706667 ], [ 2.640833, 45.706667 ], [ 2.640833, 45.715 ], [ 2.615833, 45.715 ], [ 2.615833, 45.723333 ], [ 2.6075, 45.723333 ], [ 2.6075, 45.715 ], [ 2.590833, 45.715 ], [ 2.590833, 45.706667 ], [ 2.5825, 45.706667 ], [ 2.5825, 45.715 ], [ 2.540833, 45.715 ], [ 2.540833, 45.723333 ], [ 2.5325, 45.723333 ], [ 2.5325, 45.731667 ], [ 2.524167, 45.731667 ], [ 2.524167, 45.748333 ], [ 2.515833, 45.748333 ], [ 2.515833, 45.756667 ], [ 2.4825, 45.756667 ], [ 2.4825, 45.765 ], [ 2.474167, 45.765 ], [ 2.474167, 45.773333 ], [ 2.4575, 45.773333 ], [ 2.4575, 45.781667 ], [ 2.449167, 45.781667 ], [ 2.449167, 45.79 ], [ 2.440833, 45.79 ], [ 2.440833, 45.798333 ], [ 2.449167, 45.798333 ], [ 2.449167, 45.806667 ], [ 2.440833, 45.806667 ], [ 2.440833, 45.823333 ], [ 2.449167, 45.823333 ], [ 2.449167, 45.831667 ], [ 2.440833, 45.831667 ], [ 2.440833, 45.84 ], [ 2.415833, 45.84 ], [ 2.415833, 45.848333 ], [ 2.4075, 45.848333 ], [ 2.4075, 45.856667 ], [ 2.415833, 45.856667 ], [ 2.415833, 45.865 ], [ 2.4325, 45.865 ], [ 2.4325, 45.898333 ], [ 2.440833, 45.898333 ], [ 2.440833, 45.906667 ], [ 2.449167, 45.906667 ], [ 2.449167, 45.915 ], [ 2.4575, 45.915 ], [ 2.4575, 45.923333 ], [ 2.490833, 45.923333 ], [ 2.490833, 45.931667 ], [ 2.499167, 45.931667 ], [ 2.499167, 45.94 ], [ 2.524167, 45.94 ], [ 2.524167, 45.948333 ], [ 2.540833, 45.948333 ], [ 2.540833, 45.956667 ], [ 2.549167, 45.956667 ], [ 2.549167, 45.965 ], [ 2.5575, 45.965 ], [ 2.5575, 45.956667 ], [ 2.574167, 45.956667 ], [ 2.574167, 45.965 ], [ 2.5825, 45.965 ], [ 2.5825, 45.981667 ], [ 2.6075, 45.981667 ], [ 2.6075, 45.99 ], [ 2.624167, 45.99 ], [ 2.624167, 45.998333 ], [ 2.6575, 45.998333 ], [ 2.6575, 46.006667 ], [ 2.674167, 46.006667 ], [ 2.674167, 46.015 ], [ 2.6825, 46.015 ], [ 2.6825, 46.031667 ], [ 2.674167, 46.031667 ], [ 2.674167, 46.04 ], [ 2.690833, 46.04 ], [ 2.690833, 46.048333 ], [ 2.7075, 46.048333 ], [ 2.7075, 46.065 ], [ 2.715833, 46.065 ], [ 2.715833, 46.073333 ], [ 2.740833, 46.073333 ], [ 2.740833, 46.081667 ], [ 2.749167, 46.081667 ], [ 2.749167, 46.09 ], [ 2.765833, 46.09 ], [ 2.765833, 46.098333 ], [ 2.774167, 46.098333 ] ] ] } }
]
}
